{
            "key": "IN/500001",
            "place_name": "Wallaee Street",
            "admin_name1": "Andhra Pradesh",
            "latitude": "16.7024",
            "longitude": "78.1036"
        },
        {
            "key": "IN/500002",
            "place_name": "Tagarikanaka",
            "admin_name1": "Andhra Pradesh",
            "latitude": "16.7024",
            "longitude": "78.1036"
        },
        {
            "key": "IN/500003",
            "place_name": "Gandhi Hospital",
            "admin_name1": "Andhra Pradesh",
            "latitude": "16.7024",
            "longitude": "78.1036"
        },
        {
            "key": "IN/500004",
            "place_name": "G M Telephones",
            "admin_name1": "Andhra Pradesh",
            "latitude": "16.7024",
            "longitude": "78.1036"
        },
        {
            "key": "IN/500007",
            "place_name": "Jama I Osmania Hyderabad",
            "admin_name1": "Andhra Pradesh",
            "latitude": "16.7024",
            "longitude": "78.1036"
        },
        {
            "key": "IN/500008",
            "place_name": "Langar House",
            "admin_name1": "Andhra Pradesh",
            "latitude": "16.7024",
            "longitude": "78.1036"
        },
        {
            "key": "IN/500010",
            "place_name": "Haig Lines",
            "admin_name1": "Andhra Pradesh",
            "latitude": "17.4381",
            "longitude": "78.5406"
        },
        {
            "key": "IN/500011",
            "place_name": "Old Air Port Hyd",
            "admin_name1": "Andhra Pradesh",
            "latitude": "17.4381",
            "longitude": "78.5406"
        },
        {
            "key": "IN/500012",
            "place_name": "Afzal Gunj",
            "admin_name1": "Andhra Pradesh",
            "latitude": "17.4381",
            "longitude": "78.5406"
        },
        {
            "key": "IN/500013",
            "place_name": "Central Police Lines",
            "admin_name1": "Andhra Pradesh",
            "latitude": "17.4381",
            "longitude": "78.5406"
        },
        {
            "key": "IN/500014",
            "place_name": "Hankimpet (Hyd)",
            "admin_name1": "Andhra Pradesh",
            "latitude": "17.4381",
            "longitude": "78.5406"
        },
        {
            "key": "IN/500015",
            "place_name": "M C Eme",
            "admin_name1": "Andhra Pradesh",
            "latitude": "17.4381",
            "longitude": "78.5406"
        },
        {
            "key": "IN/500016",
            "place_name": "Old Begumpet",
            "admin_name1": "Andhra Pradesh",
            "latitude": "17.4381",
            "longitude": "78.5406"
        },
        {
            "key": "IN/500017",
            "place_name": "Lallaguda",
            "admin_name1": "Andhra Pradesh",
            "latitude": "17.4381",
            "longitude": "78.5406",
            "accuracy": "4"
        },
        {
            "key": "IN/500018",
            "place_name": "Sanathnagar",
            "admin_name1": "Andhra Pradesh",
            "latitude": "17.4381",
            "longitude": "78.5406"
        },
        {
            "key": "IN/500021",
            "place_name": "Eme Records",
            "admin_name1": "Andhra Pradesh",
            "latitude": "16.7024",
            "longitude": "78.1036"
        },
        {
            "key": "IN/500022",
            "place_name": "Central Secretariat (Hyd)",
            "admin_name1": "Andhra Pradesh",
            "latitude": "16.7024",
            "longitude": "78.1036"
        },
        {
            "key": "IN/500023",
            "place_name": "Dabirpura",
            "admin_name1": "Andhra Pradesh",
            "latitude": "16.7024",
            "longitude": "78.1036"
        },
        {
            "key": "IN/500024",
            "place_name": "Chanchalguda",
            "admin_name1": "Andhra Pradesh",
            "latitude": "16.7024",
            "longitude": "78.1036"
        },
        {
            "key": "IN/500025",
            "place_name": "Padmarao Nagar",
            "admin_name1": "Andhra Pradesh",
            "latitude": "16.7024",
            "longitude": "78.1036"
        },
        {
            "key": "IN/500026",
            "place_name": "West Maredpalli",
            "admin_name1": "Andhra Pradesh",
            "latitude": "16.7024",
            "longitude": "78.1036"
        },
        {
            "key": "IN/500027",
            "place_name": "Barkatpura",
            "admin_name1": "Andhra Pradesh",
            "latitude": "16.7024",
            "longitude": "78.1036"
        },
        {
            "key": "IN/500028",
            "place_name": "Datta Treya Colony",
            "admin_name1": "Andhra Pradesh",
            "latitude": "16.7024",
            "longitude": "78.1036"
        },
        {
            "key": "IN/500029",
            "place_name": "Himayat Nagar East",
            "admin_name1": "Andhra Pradesh",
            "latitude": "16.7024",
            "longitude": "78.1036"
        },
        {
            "key": "IN/500030",
            "place_name": "Rajendranagar (Hyd)",
            "admin_name1": "Andhra Pradesh",
            "latitude": "15.9667",
            "longitude": "77.6667"
        },
        {
            "key": "IN/500031",
            "place_name": "Ibrahim Bagh Lines Hyderabad",
            "admin_name1": "Andhra Pradesh",
            "latitude": "15.9667",
            "longitude": "77.6667"
        },
        {
            "key": "IN/500032",
            "place_name": "Gachibowli",
            "admin_name1": "Andhra Pradesh",
            "latitude": "15.9667",
            "longitude": "77.6667"
        },
        {
            "key": "IN/500034",
            "place_name": "Banjara Hills Hyderabad",
            "admin_name1": "Andhra Pradesh",
            "latitude": "15.9667",
            "longitude": "77.6667"
        },
        {
            "key": "IN/500035",
            "place_name": "Injapur",
            "admin_name1": "Andhra Pradesh",
            "latitude": "15.9667",
            "longitude": "77.6667"
        },
        {
            "key": "IN/500036",
            "place_name": "Osman Nagar",
            "admin_name1": "Andhra Pradesh",
            "latitude": "15.9667",
            "longitude": "77.6667"
        },
        {
            "key": "IN/500037",
            "place_name": "T I E Balanagar",
            "admin_name1": "Andhra Pradesh",
            "latitude": "15.9667",
            "longitude": "77.6667"
        },
        {
            "key": "IN/500038",
            "place_name": "B K Guda",
            "admin_name1": "Andhra Pradesh",
            "latitude": "15.9667",
            "longitude": "77.6667"
        },
        {
            "key": "IN/500039",
            "place_name": "Uppal",
            "admin_name1": "Andhra Pradesh",
            "latitude": "15.9667",
            "longitude": "77.6667",
            "accuracy": "4"
        },
        {
            "key": "IN/500040",
            "place_name": "Industrial Estate Moulali",
            "admin_name1": "Andhra Pradesh",
            "latitude": "16.7024",
            "longitude": "78.1036"
        },
        {
            "key": "IN/500041",
            "place_name": "Raj Bhavan (Hyd)",
            "admin_name1": "Andhra Pradesh",
            "latitude": "16.7024",
            "longitude": "78.1036"
        },
        {
            "key": "IN/500042",
            "place_name": "Hindustan Aeronautics Hyd",
            "admin_name1": "Andhra Pradesh",
            "latitude": "16.7024",
            "longitude": "78.1036"
        },
        {
            "key": "IN/500044",
            "place_name": "Nallakunta",
            "admin_name1": "Andhra Pradesh",
            "latitude": "16.7024",
            "longitude": "78.1036"
        },
        {
            "key": "IN/500045",
            "place_name": "Padmavatinagar",
            "admin_name1": "Andhra Pradesh",
            "latitude": "16.7024",
            "longitude": "78.1036"
        },
        {
            "key": "IN/500047",
            "place_name": "Safilguda",
            "admin_name1": "Andhra Pradesh",
            "latitude": "16.7024",
            "longitude": "78.1036"
        },
        {
            "key": "IN/500048",
            "place_name": "Bakaram",
            "admin_name1": "Andhra Pradesh",
            "latitude": "16.7024",
            "longitude": "78.1036"
        },
        {
            "key": "IN/500049",
            "place_name": "A P S E Board (Hyd)",
            "admin_name1": "Andhra Pradesh",
            "latitude": "16.7024",
            "longitude": "78.1036"
        },
        {
            "key": "IN/500051",
            "place_name": "Hindustan Machine",
            "admin_name1": "Andhra Pradesh",
            "latitude": "16.7024",
            "longitude": "78.1036"
        },
        {
            "key": "IN/500133",
            "place_name": "Lingam Palli (Hyd)",
            "admin_name1": "Andhra Pradesh",
            "latitude": "16.7024",
            "longitude": "78.1036"
        },
        {
            "key": "IN/500134",
            "place_name": "Central University Campus",
            "admin_name1": "Andhra Pradesh",
            "latitude": "16.7024",
            "longitude": "78.1036"
        },
        {
            "key": "IN/500171",
            "place_name": "Chaitanya Bharati (Hyd)",
            "admin_name1": "Andhra Pradesh",
            "latitude": "16.7024",
            "longitude": "78.1036"
        },
        {
            "key": "IN/500252",
            "place_name": "Academy (Hyderabad)",
            "admin_name1": "Andhra Pradesh",
            "latitude": "16.7024",
            "longitude": "78.1036"
        },
        {
            "key": "IN/500253",
            "place_name": "Falaknuma Hyd",
            "admin_name1": "Andhra Pradesh",
            "latitude": "16.7024",
            "longitude": "78.1036"
        },
        {
            "key": "IN/500264",
            "place_name": "Bahadur Purra (Hyd)",
            "admin_name1": "Andhra Pradesh",
            "latitude": "16.7024",
            "longitude": "78.1036"
        },
        {
            "key": "IN/500265",
            "place_name": "Fateh Darwaza",
            "admin_name1": "Andhra Pradesh",
            "latitude": "16.7024",
            "longitude": "78.1036"
        },
        {
            "key": "IN/500266",
            "place_name": "High Court Hyderabad",
            "admin_name1": "Andhra Pradesh",
            "latitude": "16.7024",
            "longitude": "78.1036"
        },
        {
            "key": "IN/500380",
            "place_name": "Gandhi Nagar (Hyd)",
            "admin_name1": "Andhra Pradesh",
            "latitude": "16.7024",
            "longitude": "78.1036"
        },
        {
            "key": "IN/500463",
            "place_name": "A Gs OFFICE",
            "admin_name1": "Andhra Pradesh",
            "latitude": "16.7024",
            "longitude": "78.1036"
        },
        {
            "key": "IN/500587",
            "place_name": "Jai Jawahar Nagar",
            "admin_name1": "Andhra Pradesh",
            "latitude": "16.7024",
            "longitude": "78.1036"
        },
        {
            "key": "IN/500594",
            "place_name": "Sainikpuri (Secbad)",
            "admin_name1": "Andhra Pradesh",
            "latitude": "16.7024",
            "longitude": "78.1036"
        },
        {
            "key": "IN/500659",
            "place_name": "Saidabad Colony",
            "admin_name1": "Andhra Pradesh",
            "latitude": "16.7024",
            "longitude": "78.1036"
        },
        {
            "key": "IN/500660",
            "place_name": "P & T Colony (Ga) (H/D)",
            "admin_name1": "Andhra Pradesh",
            "latitude": "16.7024",
            "longitude": "78.1036"
        },
        {
            "key": "IN/500661",
            "place_name": "Vanavolu",
            "admin_name1": "Andhra Pradesh",
            "latitude": "16.7024",
            "longitude": "78.1036"
        },
        {
            "key": "IN/500762",
            "place_name": "Ecil Hyderabad",
            "admin_name1": "Andhra Pradesh",
            "latitude": "16.7024",
            "longitude": "78.1036"
        },
        {
            "key": "IN/500768",
            "place_name": "Central Training Institute",
            "admin_name1": "Andhra Pradesh",
            "latitude": "16.7024",
            "longitude": "78.1036"
        },
        {
            "key": "IN/500855",
            "place_name": "Ind Dev Are Jeed Hyd",
            "admin_name1": "Andhra Pradesh",
            "latitude": "16.7024",
            "longitude": "78.1036"
        },
        {
            "key": "IN/500890",
            "place_name": "A Gs OFFICE STAFF",
            "admin_name1": "Andhra Pradesh",
            "latitude": "16.7024",
            "longitude": "78.1036"
        },
        {
            "key": "IN/500963",
            "place_name": "Lal Bahadur Nagar (Hyd)",
            "admin_name1": "Andhra Pradesh",
            "latitude": "16.7024",
            "longitude": "78.1036"
        },
        {
            "key": "IN/501103",
            "place_name": "Ekmamidi",
            "admin_name1": "Andhra Pradesh",
            "latitude": "18.1308",
            "longitude": "79.1847"
        },
        {
            "key": "IN/501106",
            "place_name": "Kalkoda",
            "admin_name1": "Andhra Pradesh",
            "latitude": "18.1308",
            "longitude": "79.1847"
        },
        {
            "key": "IN/501114",
            "place_name": "Madireddi Palli",
            "admin_name1": "Andhra Pradesh",
            "latitude": "18.1308",
            "longitude": "79.1847"
        },
        {
            "key": "IN/501141",
            "place_name": "Tandur",
            "admin_name1": "Andhra Pradesh",
            "latitude": "19.15",
            "longitude": "79.4667",
            "accuracy": "4"
        },
        {
            "key": "IN/501142",
            "place_name": "Jangaon",
            "admin_name1": "Andhra Pradesh",
            "latitude": "17.1117",
            "longitude": "78.9028",
            "accuracy": "4"
        },
        {
            "key": "IN/501143",
            "place_name": "Basheerabad",
            "admin_name1": "Andhra Pradesh",
            "latitude": "18.1308",
            "longitude": "79.1847"
        },
        {
            "key": "IN/501144",
            "place_name": "Yalal",
            "admin_name1": "Andhra Pradesh",
            "latitude": "18.1308",
            "longitude": "79.1847"
        },
        {
            "key": "IN/501146",
            "place_name": "Agnoor",
            "admin_name1": "Andhra Pradesh",
            "latitude": "18.1308",
            "longitude": "79.1847"
        },
        {
            "key": "IN/501150",
            "place_name": "Yekmai",
            "admin_name1": "Andhra Pradesh",
            "latitude": "18.1308",
            "longitude": "79.1847"
        },
        {
            "key": "IN/501152",
            "place_name": "Indoor",
            "admin_name1": "Andhra Pradesh",
            "latitude": "18.1308",
            "longitude": "79.1847"
        },
        {
            "key": "IN/501155",
            "place_name": "Pagdial",
            "admin_name1": "Andhra Pradesh",
            "latitude": "18.1308",
            "longitude": "79.1847"
        },
        {
            "key": "IN/501158",
            "place_name": "C C I (Tandur)",
            "admin_name1": "Andhra Pradesh",
            "latitude": "18.1308",
            "longitude": "79.1847"
        },
        {
            "key": "IN/501206",
            "place_name": "Yenkatla",
            "admin_name1": "Andhra Pradesh",
            "latitude": "17.5091",
            "longitude": "78.8475"
        },
        {
            "key": "IN/501504",
            "place_name": "Himayat Nagar",
            "admin_name1": "Andhra Pradesh",
            "latitude": "17.1633",
            "longitude": "78.6629"
        },
        {
            "key": "IN/501505",
            "place_name": "Hayatnagar",
            "admin_name1": "Andhra Pradesh",
            "latitude": "17.3239",
            "longitude": "78.6042",
            "accuracy": "4"
        },
        {
            "key": "IN/501506",
            "place_name": "Ibrahimpatnam",
            "admin_name1": "Andhra Pradesh",
            "latitude": "17.1633",
            "longitude": "78.6629"
        },
        {
            "key": "IN/501508",
            "place_name": "Japal",
            "admin_name1": "Andhra Pradesh",
            "latitude": "17.1203",
            "longitude": "78.7178",
            "accuracy": "4"
        },
        {
            "key": "IN/501509",
            "place_name": "Yacharam",
            "admin_name1": "Andhra Pradesh",
            "latitude": "17.0458",
            "longitude": "78.6667",
            "accuracy": "4"
        },
        {
            "key": "IN/501528",
            "place_name": "Batasingaram",
            "admin_name1": "Andhra Pradesh",
            "latitude": "17.3031",
            "longitude": "78.7272",
            "accuracy": "4"
        },
        {
            "key": "IN/502001",
            "place_name": "Hanuman Nagar",
            "admin_name1": "Andhra Pradesh",
            "latitude": "16.6289",
            "longitude": "80.0624"
        },
        {
            "key": "IN/502101",
            "place_name": "Rahimkhanpot",
            "admin_name1": "Andhra Pradesh",
            "latitude": "16.1667",
            "longitude": "81.1667"
        },
        {
            "key": "IN/502103",
            "place_name": "Indira Nagar Colony",
            "admin_name1": "Andhra Pradesh",
            "latitude": "16.1667",
            "longitude": "81.1667"
        },
        {
            "key": "IN/502109",
            "place_name": "Machavaram",
            "admin_name1": "Andhra Pradesh",
            "latitude": "16.1667",
            "longitude": "81.1667"
        },
        {
            "key": "IN/502110",
            "place_name": "Fort",
            "admin_name1": "Andhra Pradesh",
            "latitude": "16.1667",
            "longitude": "81.1667",
            "accuracy": "4"
        },
        {
            "key": "IN/502113",
            "place_name": "Havoli Ghanapur",
            "admin_name1": "Andhra Pradesh",
            "latitude": "16.1667",
            "longitude": "81.1667"
        },
        {
            "key": "IN/502117",
            "place_name": "Rajpalli",
            "admin_name1": "Andhra Pradesh",
            "latitude": "16.1667",
            "longitude": "81.1667"
        },
        {
            "key": "IN/502220",
            "place_name": "Zahirabvad Ganj",
            "admin_name1": "Andhra Pradesh",
            "latitude": "16.6289",
            "longitude": "80.0624"
        },
        {
            "key": "IN/502228",
            "place_name": "Madhu Nagar",
            "admin_name1": "Andhra Pradesh",
            "latitude": "16.6289",
            "longitude": "80.0624"
        },
        {
            "key": "IN/502246",
            "place_name": "Zarasangam",
            "admin_name1": "Andhra Pradesh",
            "latitude": "16.6289",
            "longitude": "80.0624"
        },
        {
            "key": "IN/502251",
            "place_name": "Handnoor",
            "admin_name1": "Andhra Pradesh",
            "latitude": "16.6289",
            "longitude": "80.0624"
        },
        {
            "key": "IN/502257",
            "place_name": "Rai Kode",
            "admin_name1": "Andhra Pradesh",
            "latitude": "16.6289",
            "longitude": "80.0624"
        },
        {
            "key": "IN/502267",
            "place_name": "Ibrahim Nagar",
            "admin_name1": "Andhra Pradesh",
            "latitude": "16.6289",
            "longitude": "80.0624"
        },
        {
            "key": "IN/502281",
            "place_name": "Jagadevpur",
            "admin_name1": "Andhra Pradesh",
            "latitude": "16.6289",
            "longitude": "80.0624"
        },
        {
            "key": "IN/502284",
            "place_name": "Raj Gopal Pet",
            "admin_name1": "Andhra Pradesh",
            "latitude": "16.6289",
            "longitude": "80.0624"
        },
        {
            "key": "IN/502291",
            "place_name": "Sadashivpet Bazar",
            "admin_name1": "Andhra Pradesh",
            "latitude": "16.6289",
            "longitude": "80.0624"
        },
        {
            "key": "IN/502305",
            "place_name": "Dhanora",
            "admin_name1": "Andhra Pradesh",
            "latitude": "17.0911",
            "longitude": "78.9581"
        },
        {
            "key": "IN/502307",
            "place_name": "Idapasham",
            "admin_name1": "Andhra Pradesh",
            "latitude": "17.0911",
            "longitude": "78.9581"
        },
        {
            "key": "IN/502308",
            "place_name": "Nagi Reddi Pet",
            "admin_name1": "Andhra Pradesh",
            "latitude": "17.0911",
            "longitude": "78.9581"
        },
        {
            "key": "IN/502323",
            "place_name": "Yelmakanna",
            "admin_name1": "Andhra Pradesh",
            "latitude": "17.0911",
            "longitude": "78.9581",
            "accuracy": "4"
        },
        {
            "key": "IN/502324",
            "place_name": "Icrisat (I C R I S A T)",
            "admin_name1": "Andhra Pradesh",
            "latitude": "17.0911",
            "longitude": "78.9581"
        },
        {
            "key": "IN/502330",
            "place_name": "Indrakannu",
            "admin_name1": "Andhra Pradesh",
            "latitude": "17.0911",
            "longitude": "78.9581"
        },
        {
            "key": "IN/502375",
            "place_name": "Palamkole",
            "admin_name1": "Andhra Pradesh",
            "latitude": "17.0911",
            "longitude": "78.9581"
        },
        {
            "key": "IN/503001",
            "place_name": "Gandhi Gunj",
            "admin_name1": "Andhra Pradesh",
            "latitude": "18.4135",
            "longitude": "78.1415"
        },
        {
            "key": "IN/503002",
            "place_name": "Namdewada",
            "admin_name1": "Andhra Pradesh",
            "latitude": "18.4135",
            "longitude": "78.1415"
        },
        {
            "key": "IN/503102",
            "place_name": "Jangampalli",
            "admin_name1": "Andhra Pradesh",
            "latitude": "17.9942",
            "longitude": "78.2742",
            "accuracy": "4"
        },
        {
            "key": "IN/503103",
            "place_name": "Talmadla",
            "admin_name1": "Andhra Pradesh",
            "latitude": "17.9942",
            "longitude": "78.2742"
        },
        {
            "key": "IN/503110",
            "place_name": "Rajampet (Kamareddy)",
            "admin_name1": "Andhra Pradesh",
            "latitude": "18.4",
            "longitude": "78.1333"
        },
        {
            "key": "IN/503111",
            "place_name": "Jagajivan Ramnagar",
            "admin_name1": "Andhra Pradesh",
            "latitude": "18.4",
            "longitude": "78.1333"
        },
        {
            "key": "IN/503114",
            "place_name": "Gandhari",
            "admin_name1": "Andhra Pradesh",
            "latitude": "18.4",
            "longitude": "78.1333",
            "accuracy": "4"
        },
        {
            "key": "IN/503120",
            "place_name": "Yerra Pahad",
            "admin_name1": "Andhra Pradesh",
            "latitude": "18.2833",
            "longitude": "78.1917"
        },
        {
            "key": "IN/503122",
            "place_name": "Y R Old Town",
            "admin_name1": "Andhra Pradesh",
            "latitude": "18.2833",
            "longitude": "78.1917"
        },
        {
            "key": "IN/503124",
            "place_name": "Demi",
            "admin_name1": "Andhra Pradesh",
            "latitude": "18.3333",
            "longitude": "78.2333",
            "accuracy": "4"
        },
        {
            "key": "IN/503145",
            "place_name": "Sadsivnagar",
            "admin_name1": "Andhra Pradesh",
            "latitude": "18.2688",
            "longitude": "78.1348"
        },
        {
            "key": "IN/503164",
            "place_name": "Indalwai R S",
            "admin_name1": "Andhra Pradesh",
            "latitude": "18.2688",
            "longitude": "78.1348"
        },
        {
            "key": "IN/503165",
            "place_name": "Darpalli",
            "admin_name1": "Andhra Pradesh",
            "latitude": "18.2688",
            "longitude": "78.1348"
        },
        {
            "key": "IN/503176",
            "place_name": "Nadepalli",
            "admin_name1": "Andhra Pradesh",
            "latitude": "18.2688",
            "longitude": "78.1348"
        },
        {
            "key": "IN/503178",
            "place_name": "Padkal",
            "admin_name1": "Andhra Pradesh",
            "latitude": "18.2688",
            "longitude": "78.1348"
        },
        {
            "key": "IN/503180",
            "place_name": "Camp Ootpalli",
            "admin_name1": "Andhra Pradesh",
            "latitude": "18.3833",
            "longitude": "77.8833"
        },
        {
            "key": "IN/503187",
            "place_name": "Banswada",
            "admin_name1": "Andhra Pradesh",
            "latitude": "18.3833",
            "longitude": "77.8833",
            "accuracy": "4"
        },
        {
            "key": "IN/503193",
            "place_name": "Jankampet R S",
            "admin_name1": "Andhra Pradesh",
            "latitude": "18.2688",
            "longitude": "78.1348"
        },
        {
            "key": "IN/503201",
            "place_name": "Varni",
            "admin_name1": "Andhra Pradesh",
            "latitude": "18.6833",
            "longitude": "77.9667"
        },
        {
            "key": "IN/503202",
            "place_name": "Edpalli",
            "admin_name1": "Andhra Pradesh",
            "latitude": "18.6833",
            "longitude": "77.9667",
            "accuracy": "4"
        },
        {
            "key": "IN/503217",
            "place_name": "Balkonda",
            "admin_name1": "Andhra Pradesh",
            "latitude": "18.8667",
            "longitude": "78.35",
            "accuracy": "4"
        },
        {
            "key": "IN/503220",
            "place_name": "Fathepur",
            "admin_name1": "Andhra Pradesh",
            "latitude": "18.775",
            "longitude": "78.1583"
        },
        {
            "key": "IN/503224",
            "place_name": "Ziryatnagar",
            "admin_name1": "Andhra Pradesh",
            "latitude": "18.775",
            "longitude": "78.1583"
        },
        {
            "key": "IN/503225",
            "place_name": "Palem",
            "admin_name1": "Andhra Pradesh",
            "latitude": "18.775",
            "longitude": "78.1583"
        },
        {
            "key": "IN/503230",
            "place_name": "Dharamaram",
            "admin_name1": "Andhra Pradesh",
            "latitude": "18.775",
            "longitude": "78.1583"
        },
        {
            "key": "IN/503231",
            "place_name": "Bardipur",
            "admin_name1": "Andhra Pradesh",
            "latitude": "18.775",
            "longitude": "78.1583"
        },
        {
            "key": "IN/503246",
            "place_name": "Jannepalli",
            "admin_name1": "Andhra Pradesh",
            "latitude": "18.775",
            "longitude": "78.1583"
        },
        {
            "key": "IN/503309",
            "place_name": "Madnoor",
            "admin_name1": "Andhra Pradesh",
            "latitude": "18.4135",
            "longitude": "78.1415"
        },
        {
            "key": "IN/503311",
            "place_name": "Vailpur",
            "admin_name1": "Andhra Pradesh",
            "latitude": "18.4135",
            "longitude": "78.1415"
        },
        {
            "key": "IN/503313",
            "place_name": "Vannel B",
            "admin_name1": "Andhra Pradesh",
            "latitude": "18.4135",
            "longitude": "78.1415"
        },
        {
            "key": "IN/503315",
            "place_name": "Padgal",
            "admin_name1": "Andhra Pradesh",
            "latitude": "18.4135",
            "longitude": "78.1415"
        },
        {
            "key": "IN/504001",
            "place_name": "Adilabad H O",
            "admin_name1": "Andhra Pradesh",
            "latitude": "19.2833",
            "longitude": "78.1917"
        },
        {
            "key": "IN/504002",
            "place_name": "Adilabad Collecotorate",
            "admin_name1": "Andhra Pradesh",
            "latitude": "19.2833",
            "longitude": "78.1917"
        },
        {
            "key": "IN/504101",
            "place_name": "Basar",
            "admin_name1": "Andhra Pradesh",
            "latitude": "18.8833",
            "longitude": "77.9667",
            "accuracy": "4"
        },
        {
            "key": "IN/504106",
            "place_name": "Indra Nagar",
            "admin_name1": "Andhra Pradesh",
            "latitude": "18.8833",
            "longitude": "77.9667"
        },
        {
            "key": "IN/504205",
            "place_name": "Jannaram",
            "admin_name1": "Andhra Pradesh",
            "latitude": "19.2833",
            "longitude": "78.1917"
        },
        {
            "key": "IN/504206",
            "place_name": "Dandepalli",
            "admin_name1": "Andhra Pradesh",
            "latitude": "19.2833",
            "longitude": "78.1917"
        },
        {
            "key": "IN/504209",
            "place_name": "Cement Works",
            "admin_name1": "Andhra Pradesh",
            "latitude": "19.2833",
            "longitude": "78.1917"
        },
        {
            "key": "IN/504215",
            "place_name": "Laxshotti Pet",
            "admin_name1": "Andhra Pradesh",
            "latitude": "19.2833",
            "longitude": "78.1917"
        },
        {
            "key": "IN/504216",
            "place_name": "Jaipur Adilabad",
            "admin_name1": "Andhra Pradesh",
            "latitude": "19.2833",
            "longitude": "78.1917"
        },
        {
            "key": "IN/504218",
            "place_name": "Devapur (Cement Works)",
            "admin_name1": "Andhra Pradesh",
            "latitude": "19.2833",
            "longitude": "78.1917"
        },
        {
            "key": "IN/504220",
            "place_name": "Madaram Town Shop",
            "admin_name1": "Andhra Pradesh",
            "latitude": "19.2833",
            "longitude": "78.1917"
        },
        {
            "key": "IN/504231",
            "place_name": "Kalyani Khani",
            "admin_name1": "Andhra Pradesh",
            "latitude": "19.2833",
            "longitude": "78.1917"
        },
        {
            "key": "IN/504251",
            "place_name": "A G M Colony",
            "admin_name1": "Andhra Pradesh",
            "latitude": "19.2833",
            "longitude": "78.1917"
        },
        {
            "key": "IN/504272",
            "place_name": "Tandur (Adb)",
            "admin_name1": "Andhra Pradesh",
            "latitude": "19.2833",
            "longitude": "78.1917"
        },
        {
            "key": "IN/504295",
            "place_name": "Wakndi",
            "admin_name1": "Andhra Pradesh",
            "latitude": "19.2833",
            "longitude": "78.1917"
        },
        {
            "key": "IN/504296",
            "place_name": "Old Town",
            "admin_name1": "Andhra Pradesh",
            "latitude": "19.2833",
            "longitude": "78.1917"
        },
        {
            "key": "IN/504305",
            "place_name": "Hatnoor",
            "admin_name1": "Andhra Pradesh",
            "latitude": "19.6833",
            "longitude": "78.4167"
        },
        {
            "key": "IN/504307",
            "place_name": "Echoda",
            "admin_name1": "Andhra Pradesh",
            "latitude": "19.6833",
            "longitude": "78.4167"
        },
        {
            "key": "IN/504311",
            "place_name": "Ootnur",
            "admin_name1": "Andhra Pradesh",
            "latitude": "19.6833",
            "longitude": "78.4167"
        },
        {
            "key": "IN/504312",
            "place_name": "Tamsi",
            "admin_name1": "Andhra Pradesh",
            "latitude": "19.6833",
            "longitude": "78.4167",
            "accuracy": "4"
        },
        {
            "key": "IN/504313",
            "place_name": "Jainur",
            "admin_name1": "Andhra Pradesh",
            "latitude": "19.6833",
            "longitude": "78.4167"
        },
        {
            "key": "IN/504321",
            "place_name": "Wankdi",
            "admin_name1": "Andhra Pradesh",
            "latitude": "19.6833",
            "longitude": "78.4167"
        },
        {
            "key": "IN/504325",
            "place_name": "Jainad",
            "admin_name1": "Andhra Pradesh",
            "latitude": "19.6833",
            "longitude": "78.4167"
        },
        {
            "key": "IN/504340",
            "place_name": "Nachan Yellapur",
            "admin_name1": "Andhra Pradesh",
            "latitude": "19.6833",
            "longitude": "78.4167"
        },
        {
            "key": "IN/504342",
            "place_name": "Indarpalli",
            "admin_name1": "Andhra Pradesh",
            "latitude": "19.6833",
            "longitude": "78.4167"
        },
        {
            "key": "IN/504344",
            "place_name": "Hajipur",
            "admin_name1": "Andhra Pradesh",
            "latitude": "19.6833",
            "longitude": "78.4167"
        },
        {
            "key": "IN/504346",
            "place_name": "Indervalli",
            "admin_name1": "Andhra Pradesh",
            "latitude": "19.6833",
            "longitude": "78.4167"
        },
        {
            "key": "IN/505001",
            "place_name": "K Nagar Bus Stand",
            "admin_name1": "Andhra Pradesh",
            "latitude": "17.448",
            "longitude": "78.5913"
        },
        {
            "key": "IN/505002",
            "place_name": "Jawahar Nagar",
            "admin_name1": "Andhra Pradesh",
            "latitude": "17.448",
            "longitude": "78.5913"
        },
        {
            "key": "IN/505101",
            "place_name": "Uppal (Knr)",
            "admin_name1": "Andhra Pradesh",
            "latitude": "17.448",
            "longitude": "78.5913"
        },
        {
            "key": "IN/505102",
            "place_name": "Vagapalli",
            "admin_name1": "Andhra Pradesh",
            "latitude": "17.448",
            "longitude": "78.5913"
        },
        {
            "key": "IN/505122",
            "place_name": "Jammikunta",
            "admin_name1": "Andhra Pradesh",
            "latitude": "17.448",
            "longitude": "78.5913"
        },
        {
            "key": "IN/505152",
            "place_name": "Madka",
            "admin_name1": "Andhra Pradesh",
            "latitude": "17.448",
            "longitude": "78.5913"
        },
        {
            "key": "IN/505173",
            "place_name": "Raghavapur",
            "admin_name1": "Andhra Pradesh",
            "latitude": "17.448",
            "longitude": "78.5913"
        },
        {
            "key": "IN/505184",
            "place_name": "Nagaram",
            "admin_name1": "Andhra Pradesh",
            "latitude": "17.1842",
            "longitude": "78.3897"
        },
        {
            "key": "IN/505187",
            "place_name": "Basant Nagar",
            "admin_name1": "Andhra Pradesh",
            "latitude": "17.448",
            "longitude": "78.5913"
        },
        {
            "key": "IN/505188",
            "place_name": "Adivarampet",
            "admin_name1": "Andhra Pradesh",
            "latitude": "17.448",
            "longitude": "78.5913"
        },
        {
            "key": "IN/505208",
            "place_name": "Abadi Ramagundam",
            "admin_name1": "Andhra Pradesh",
            "latitude": "17.448",
            "longitude": "78.5913"
        },
        {
            "key": "IN/505209",
            "place_name": "Madpalli",
            "admin_name1": "Andhra Pradesh",
            "latitude": "17.448",
            "longitude": "78.5913"
        },
        {
            "key": "IN/505210",
            "place_name": "Fertilizer City",
            "admin_name1": "Andhra Pradesh",
            "latitude": "17.448",
            "longitude": "78.5913"
        },
        {
            "key": "IN/505301",
            "place_name": "Gandhi Chowk",
            "admin_name1": "Andhra Pradesh",
            "latitude": "17.448",
            "longitude": "78.5913"
        },
        {
            "key": "IN/505305",
            "place_name": "Racharla Boppapur",
            "admin_name1": "Andhra Pradesh",
            "latitude": "17.448",
            "longitude": "78.5913"
        },
        {
            "key": "IN/505327",
            "place_name": "Jagtial H O",
            "admin_name1": "Andhra Pradesh",
            "latitude": "17.448",
            "longitude": "78.5913"
        },
        {
            "key": "IN/505401",
            "place_name": "Elgandal",
            "admin_name1": "Andhra Pradesh",
            "latitude": "17.448",
            "longitude": "78.5913"
        },
        {
            "key": "IN/505405",
            "place_name": "Tadoor",
            "admin_name1": "Andhra Pradesh",
            "latitude": "17.448",
            "longitude": "78.5913"
        },
        {
            "key": "IN/505407",
            "place_name": "Bandankal",
            "admin_name1": "Andhra Pradesh",
            "latitude": "17.448",
            "longitude": "78.5913"
        },
        {
            "key": "IN/505413",
            "place_name": "Vablapur",
            "admin_name1": "Andhra Pradesh",
            "latitude": "17.448",
            "longitude": "78.5913"
        },
        {
            "key": "IN/505417",
            "place_name": "Nagnoor",
            "admin_name1": "Andhra Pradesh",
            "latitude": "17.448",
            "longitude": "78.5913"
        },
        {
            "key": "IN/505425",
            "place_name": "Dharamapuri",
            "admin_name1": "Andhra Pradesh",
            "latitude": "17.448",
            "longitude": "78.5913"
        },
        {
            "key": "IN/505450",
            "place_name": "Ibrahimpathnam (Knr)",
            "admin_name1": "Andhra Pradesh",
            "latitude": "17.448",
            "longitude": "78.5913"
        },
        {
            "key": "IN/505460",
            "place_name": "Raikal",
            "admin_name1": "Andhra Pradesh",
            "latitude": "17.0086",
            "longitude": "78.1908",
            "accuracy": "4"
        },
        {
            "key": "IN/505467",
            "place_name": "Husnabad",
            "admin_name1": "Andhra Pradesh",
            "latitude": "17.0667",
            "longitude": "77.65",
            "accuracy": "4"
        },
        {
            "key": "IN/505470",
            "place_name": "Kachapur",
            "admin_name1": "Andhra Pradesh",
            "latitude": "17.7216",
            "longitude": "79.0386"
        },
        {
            "key": "IN/505472",
            "place_name": "Saidapur",
            "admin_name1": "Andhra Pradesh",
            "latitude": "17.6183",
            "longitude": "78.9458",
            "accuracy": "4"
        },
        {
            "key": "IN/505474",
            "place_name": "Tadikal",
            "admin_name1": "Andhra Pradesh",
            "latitude": "18.3167",
            "longitude": "79.2833",
            "accuracy": "4"
        },
        {
            "key": "IN/505475",
            "place_name": "Vavilal",
            "admin_name1": "Andhra Pradesh",
            "latitude": "17.7216",
            "longitude": "79.0386"
        },
        {
            "key": "IN/505476",
            "place_name": "Damera",
            "admin_name1": "Andhra Pradesh",
            "latitude": "17.2297",
            "longitude": "78.8867",
            "accuracy": "4"
        },
        {
            "key": "IN/505480",
            "place_name": "Raikal",
            "admin_name1": "Andhra Pradesh",
            "latitude": "18.9",
            "longitude": "78.8167"
        },
        {
            "key": "IN/505498",
            "place_name": "K C Campus (Huzurabad)",
            "admin_name1": "Andhra Pradesh",
            "latitude": "17.448",
            "longitude": "78.5913"
        },
        {
            "key": "IN/505502",
            "place_name": "Veena Vanka",
            "admin_name1": "Andhra Pradesh",
            "latitude": "17.448",
            "longitude": "78.5913"
        },
        {
            "key": "IN/505505",
            "place_name": "Challore",
            "admin_name1": "Andhra Pradesh",
            "latitude": "17.448",
            "longitude": "78.5913"
        },
        {
            "key": "IN/505525",
            "place_name": "Elgaid",
            "admin_name1": "Andhra Pradesh",
            "latitude": "17.448",
            "longitude": "78.5913"
        },
        {
            "key": "IN/505526",
            "place_name": "Endapalli",
            "admin_name1": "Andhra Pradesh",
            "latitude": "17.448",
            "longitude": "78.5913"
        },
        {
            "key": "IN/505527",
            "place_name": "Lower Manair Dam Colony",
            "admin_name1": "Andhra Pradesh",
            "latitude": "17.448",
            "longitude": "78.5913"
        },
        {
            "key": "IN/505530",
            "place_name": "Indurthi",
            "admin_name1": "Andhra Pradesh",
            "latitude": "17.448",
            "longitude": "78.5913"
        },
        {
            "key": "IN/506001",
            "place_name": "Lashkar Bazar",
            "admin_name1": "Andhra Pradesh",
            "latitude": "17.0289",
            "longitude": "78.3025"
        },
        {
            "key": "IN/506002",
            "place_name": "S V N Road",
            "admin_name1": "Andhra Pradesh",
            "latitude": "17.0289",
            "longitude": "78.3025"
        },
        {
            "key": "IN/506003",
            "place_name": "Fatimanagar",
            "admin_name1": "Andhra Pradesh",
            "latitude": "17.0289",
            "longitude": "78.3025"
        },
        {
            "key": "IN/506004",
            "place_name": "R E College (Wgl)",
            "admin_name1": "Andhra Pradesh",
            "latitude": "17.0289",
            "longitude": "78.3025"
        },
        {
            "key": "IN/506006",
            "place_name": "Deshaipet (Wgl)",
            "admin_name1": "Andhra Pradesh",
            "latitude": "17.0289",
            "longitude": "78.3025"
        },
        {
            "key": "IN/506007",
            "place_name": "Kakatiya Medical College",
            "admin_name1": "Andhra Pradesh",
            "latitude": "17.0289",
            "longitude": "78.3025"
        },
        {
            "key": "IN/506008",
            "place_name": "Fort Warangal",
            "admin_name1": "Andhra Pradesh",
            "latitude": "17.0289",
            "longitude": "78.3025"
        },
        {
            "key": "IN/506011",
            "place_name": "Deval Hazar Sutoon",
            "admin_name1": "Andhra Pradesh",
            "latitude": "17.0289",
            "longitude": "78.3025"
        },
        {
            "key": "IN/506012",
            "place_name": "M G Road",
            "admin_name1": "Andhra Pradesh",
            "latitude": "17.0289",
            "longitude": "78.3025"
        },
        {
            "key": "IN/506013",
            "place_name": "Laxmipur (Wgl)",
            "admin_name1": "Andhra Pradesh",
            "latitude": "17.0289",
            "longitude": "78.3025"
        },
        {
            "key": "IN/506015",
            "place_name": "Kakatiya Canal Colony Wgl",
            "admin_name1": "Andhra Pradesh",
            "latitude": "17.0289",
            "longitude": "78.3025"
        },
        {
            "key": "IN/506101",
            "place_name": "Mahabubabad H O",
            "admin_name1": "Andhra Pradesh",
            "latitude": "17.0289",
            "longitude": "78.3025"
        },
        {
            "key": "IN/506142",
            "place_name": "Madikonda",
            "admin_name1": "Andhra Pradesh",
            "latitude": "17.0289",
            "longitude": "78.3025"
        },
        {
            "key": "IN/506144",
            "place_name": "Abadi Ghanpur",
            "admin_name1": "Andhra Pradesh",
            "latitude": "17.0289",
            "longitude": "78.3025"
        },
        {
            "key": "IN/506165",
            "place_name": "Eturnagaram",
            "admin_name1": "Andhra Pradesh",
            "latitude": "17.0289",
            "longitude": "78.3025"
        },
        {
            "key": "IN/506167",
            "place_name": "Jangaon H O",
            "admin_name1": "Andhra Pradesh",
            "latitude": "17.0289",
            "longitude": "78.3025"
        },
        {
            "key": "IN/506224",
            "place_name": "Ladnoor",
            "admin_name1": "Andhra Pradesh",
            "latitude": "17.0289",
            "longitude": "78.3025"
        },
        {
            "key": "IN/506244",
            "place_name": "Quilashapur",
            "admin_name1": "Andhra Pradesh",
            "latitude": "17.0289",
            "longitude": "78.3025"
        },
        {
            "key": "IN/506252",
            "place_name": "Ippaguda",
            "admin_name1": "Andhra Pradesh",
            "latitude": "17.0289",
            "longitude": "78.3025"
        },
        {
            "key": "IN/506301",
            "place_name": "Chagal",
            "admin_name1": "Andhra Pradesh",
            "latitude": "17.0289",
            "longitude": "78.3025"
        },
        {
            "key": "IN/506302",
            "place_name": "Devaruppala",
            "admin_name1": "Andhra Pradesh",
            "latitude": "17.0289",
            "longitude": "78.3025"
        },
        {
            "key": "IN/506303",
            "place_name": "Waddicherla Nawabpet",
            "admin_name1": "Andhra Pradesh",
            "latitude": "17.0289",
            "longitude": "78.3025"
        },
        {
            "key": "IN/506313",
            "place_name": "Wardhannapet",
            "admin_name1": "Andhra Pradesh",
            "latitude": "17.0289",
            "longitude": "78.3025"
        },
        {
            "key": "IN/506314",
            "place_name": "Rai Parthi",
            "admin_name1": "Andhra Pradesh",
            "latitude": "17.0289",
            "longitude": "78.3025"
        },
        {
            "key": "IN/506315",
            "place_name": "Dathala Palli",
            "admin_name1": "Andhra Pradesh",
            "latitude": "17.0289",
            "longitude": "78.3025"
        },
        {
            "key": "IN/506316",
            "place_name": "Zaffargadh",
            "admin_name1": "Andhra Pradesh",
            "latitude": "17.0289",
            "longitude": "78.3025"
        },
        {
            "key": "IN/506318",
            "place_name": "Waddekothapalle",
            "admin_name1": "Andhra Pradesh",
            "latitude": "17.0289",
            "longitude": "78.3025"
        },
        {
            "key": "IN/506329",
            "place_name": "Sangam",
            "admin_name1": "Andhra Pradesh",
            "latitude": "17.0289",
            "longitude": "78.3025",
            "accuracy": "4"
        },
        {
            "key": "IN/506330",
            "place_name": "Dharma Rao Cheruvu",
            "admin_name1": "Andhra Pradesh",
            "latitude": "17.0289",
            "longitude": "78.3025"
        },
        {
            "key": "IN/506352",
            "place_name": "Jangalapalli",
            "admin_name1": "Andhra Pradesh",
            "latitude": "17.0289",
            "longitude": "78.3025"
        },
        {
            "key": "IN/506370",
            "place_name": "Waddepalli",
            "admin_name1": "Andhra Pradesh",
            "latitude": "17.0289",
            "longitude": "78.3025"
        },
        {
            "key": "IN/506371",
            "place_name": "Hasanparthi",
            "admin_name1": "Andhra Pradesh",
            "latitude": "17.0289",
            "longitude": "78.3025"
        },
        {
            "key": "IN/506381",
            "place_name": "Cathedral Compound",
            "admin_name1": "Andhra Pradesh",
            "latitude": "17.0289",
            "longitude": "78.3025"
        },
        {
            "key": "IN/506391",
            "place_name": "Nadikuda",
            "admin_name1": "Andhra Pradesh",
            "latitude": "17.0289",
            "longitude": "78.3025"
        },
        {
            "key": "IN/507002",
            "place_name": "Yellandu Cross Rd (Kmm)",
            "admin_name1": "Andhra Pradesh",
            "latitude": "17.4333",
            "longitude": "80.675"
        },
        {
            "key": "IN/507003",
            "place_name": "Dabala Bazar",
            "admin_name1": "Andhra Pradesh",
            "latitude": "17.4333",
            "longitude": "80.675"
        },
        {
            "key": "IN/507101",
            "place_name": "Adm Bldgs",
            "admin_name1": "Andhra Pradesh",
            "latitude": "17.6",
            "longitude": "80.3333"
        },
        {
            "key": "IN/507106",
            "place_name": "Laxmidevi Palli",
            "admin_name1": "Andhra Pradesh",
            "latitude": "17.6",
            "longitude": "80.3333"
        },
        {
            "key": "IN/507111",
            "place_name": "Kalyanamantapam",
            "admin_name1": "Andhra Pradesh",
            "latitude": "17.6",
            "longitude": "80.3333"
        },
        {
            "key": "IN/507115",
            "place_name": "Nagaram",
            "admin_name1": "Andhra Pradesh",
            "latitude": "17.1842",
            "longitude": "78.3897"
        },
        {
            "key": "IN/507123",
            "place_name": "Yellandu",
            "admin_name1": "Andhra Pradesh",
            "latitude": "17.6",
            "longitude": "80.3333",
            "accuracy": "4"
        },
        {
            "key": "IN/507124",
            "place_name": "Yellaandu Colleries",
            "admin_name1": "Andhra Pradesh",
            "latitude": "17.6",
            "longitude": "80.3333"
        },
        {
            "key": "IN/507152",
            "place_name": "Janampet",
            "admin_name1": "Andhra Pradesh",
            "latitude": "17.6",
            "longitude": "80.3333"
        },
        {
            "key": "IN/507154",
            "place_name": "Campus (Paloncha)",
            "admin_name1": "Andhra Pradesh",
            "latitude": "17.6",
            "longitude": "80.3333"
        },
        {
            "key": "IN/507157",
            "place_name": "Palair",
            "admin_name1": "Andhra Pradesh",
            "latitude": "17.6",
            "longitude": "80.3333"
        },
        {
            "key": "IN/507165",
            "place_name": "Wyra",
            "admin_name1": "Andhra Pradesh",
            "latitude": "17.6",
            "longitude": "80.3333"
        },
        {
            "key": "IN/507167",
            "place_name": "Tallada",
            "admin_name1": "Andhra Pradesh",
            "latitude": "17.6",
            "longitude": "80.3333"
        },
        {
            "key": "IN/507168",
            "place_name": "Enkur",
            "admin_name1": "Andhra Pradesh",
            "latitude": "17.6",
            "longitude": "80.3333"
        },
        {
            "key": "IN/507170",
            "place_name": "Tallam Pahad",
            "admin_name1": "Andhra Pradesh",
            "latitude": "17.6",
            "longitude": "80.3333"
        },
        {
            "key": "IN/507201",
            "place_name": "Yerrupalem",
            "admin_name1": "Andhra Pradesh",
            "latitude": "17.4333",
            "longitude": "80.675"
        },
        {
            "key": "IN/507202",
            "place_name": "Banigandla Pahad",
            "admin_name1": "Andhra Pradesh",
            "latitude": "17.4333",
            "longitude": "80.675"
        },
        {
            "key": "IN/507203",
            "place_name": "Madhira",
            "admin_name1": "Andhra Pradesh",
            "latitude": "17.4333",
            "longitude": "80.675"
        },
        {
            "key": "IN/507206",
            "place_name": "Dendukur",
            "admin_name1": "Andhra Pradesh",
            "latitude": "17.4333",
            "longitude": "80.675"
        },
        {
            "key": "IN/507209",
            "place_name": "Kallur",
            "admin_name1": "Andhra Pradesh",
            "latitude": "17.2",
            "longitude": "80.55"
        },
        {
            "key": "IN/507213",
            "place_name": "Nagula Vancha",
            "admin_name1": "Andhra Pradesh",
            "latitude": "17.4333",
            "longitude": "80.675"
        },
        {
            "key": "IN/507305",
            "place_name": "Tanikella",
            "admin_name1": "Andhra Pradesh",
            "latitude": "17.2667",
            "longitude": "81.0167"
        },
        {
            "key": "IN/507306",
            "place_name": "Dammapeta",
            "admin_name1": "Andhra Pradesh",
            "latitude": "17.2667",
            "longitude": "81.0167",
            "accuracy": "4"
        },
        {
            "key": "IN/508001",
            "place_name": "Old Abadi",
            "admin_name1": "Andhra Pradesh",
            "latitude": "17.1084",
            "longitude": "79.1517"
        },
        {
            "key": "IN/508105",
            "place_name": "Raghunathapuram",
            "admin_name1": "Andhra Pradesh",
            "latitude": "17.4419",
            "longitude": "78.3883"
        },
        {
            "key": "IN/508111",
            "place_name": "Chada",
            "admin_name1": "Andhra Pradesh",
            "latitude": "17.4419",
            "longitude": "78.3883"
        },
        {
            "key": "IN/508112",
            "place_name": "Vali Gonda",
            "admin_name1": "Andhra Pradesh",
            "latitude": "17.4419",
            "longitude": "78.3883"
        },
        {
            "key": "IN/508115",
            "place_name": "Kacharam",
            "admin_name1": "Andhra Pradesh",
            "latitude": "17.4419",
            "longitude": "78.3883"
        },
        {
            "key": "IN/508116",
            "place_name": "Madhapur",
            "admin_name1": "Andhra Pradesh",
            "latitude": "17.4419",
            "longitude": "78.3883",
            "accuracy": "4"
        },
        {
            "key": "IN/508126",
            "place_name": "Hazipur",
            "admin_name1": "Andhra Pradesh",
            "latitude": "17.4419",
            "longitude": "78.3883"
        },
        {
            "key": "IN/508202",
            "place_name": "Hill Colony",
            "admin_name1": "Andhra Pradesh",
            "latitude": "17.1667",
            "longitude": "79.4333"
        },
        {
            "key": "IN/508206",
            "place_name": "Balaji Nagar",
            "admin_name1": "Andhra Pradesh",
            "latitude": "17.1667",
            "longitude": "79.4333"
        },
        {
            "key": "IN/508207",
            "place_name": "A C Palli",
            "admin_name1": "Andhra Pradesh",
            "latitude": "17.1667",
            "longitude": "79.4333"
        },
        {
            "key": "IN/508211",
            "place_name": "Nakrekal",
            "admin_name1": "Andhra Pradesh",
            "latitude": "17.1667",
            "longitude": "79.4333",
            "accuracy": "4"
        },
        {
            "key": "IN/508213",
            "place_name": "Bank Street",
            "admin_name1": "Andhra Pradesh",
            "latitude": "17.1667",
            "longitude": "79.4333"
        },
        {
            "key": "IN/508214",
            "place_name": "Nacharam Industrial Estat",
            "admin_name1": "Andhra Pradesh",
            "latitude": "17.1667",
            "longitude": "79.4333"
        },
        {
            "key": "IN/508234",
            "place_name": "Nadigudem",
            "admin_name1": "Andhra Pradesh",
            "latitude": "17.1667",
            "longitude": "79.4333"
        },
        {
            "key": "IN/508248",
            "place_name": "Devar Konda",
            "admin_name1": "Andhra Pradesh",
            "latitude": "17.1667",
            "longitude": "79.4333"
        },
        {
            "key": "IN/508278",
            "place_name": "Nadavanore",
            "admin_name1": "Andhra Pradesh",
            "latitude": "17.1667",
            "longitude": "79.4333"
        },
        {
            "key": "IN/508286",
            "place_name": "Wangopalli",
            "admin_name1": "Andhra Pradesh",
            "latitude": "17.1667",
            "longitude": "79.4333"
        },
        {
            "key": "IN/508288",
            "place_name": "Inkriyala",
            "admin_name1": "Andhra Pradesh",
            "latitude": "17.1667",
            "longitude": "79.4333"
        },
        {
            "key": "IN/508296",
            "place_name": "Raghavapuram",
            "admin_name1": "Andhra Pradesh",
            "latitude": "17.1667",
            "longitude": "79.4333"
        },
        {
            "key": "IN/508332",
            "place_name": "Palakaveedu",
            "admin_name1": "Andhra Pradesh",
            "latitude": "16.7167",
            "longitude": "79.6333"
        },
        {
            "key": "IN/508346",
            "place_name": "Indloor",
            "admin_name1": "Andhra Pradesh",
            "latitude": "16.7167",
            "longitude": "79.6333"
        },
        {
            "key": "IN/508347",
            "place_name": "Kalmal Cheruvu",
            "admin_name1": "Andhra Pradesh",
            "latitude": "16.7167",
            "longitude": "79.6333"
        },
        {
            "key": "IN/508350",
            "place_name": "Chalakurthi",
            "admin_name1": "Andhra Pradesh",
            "latitude": "16.7167",
            "longitude": "79.6333"
        },
        {
            "key": "IN/508353",
            "place_name": "Nallabanda Gudem",
            "admin_name1": "Andhra Pradesh",
            "latitude": "16.7167",
            "longitude": "79.6333"
        },
        {
            "key": "IN/508355",
            "place_name": "Janpahad",
            "admin_name1": "Andhra Pradesh",
            "latitude": "16.7167",
            "longitude": "79.6333"
        },
        {
            "key": "IN/508367",
            "place_name": "Adsarla Pally",
            "admin_name1": "Andhra Pradesh",
            "latitude": "16.7167",
            "longitude": "79.6333"
        },
        {
            "key": "IN/508373",
            "place_name": "Nampalli",
            "admin_name1": "Andhra Pradesh",
            "latitude": "16.7167",
            "longitude": "79.6333"
        },
        {
            "key": "IN/508374",
            "place_name": "Madugulapalli",
            "admin_name1": "Andhra Pradesh",
            "latitude": "16.7167",
            "longitude": "79.6333"
        },
        {
            "key": "IN/508375",
            "place_name": "Damarcherla",
            "admin_name1": "Andhra Pradesh",
            "latitude": "16.7167",
            "longitude": "79.6333",
            "accuracy": "4"
        },
        {
            "key": "IN/509001",
            "place_name": "Pallaburju",
            "admin_name1": "Andhra Pradesh",
            "latitude": "17.044",
            "longitude": "78.9628"
        },
        {
            "key": "IN/509002",
            "place_name": "Industrial Estate Mbn",
            "admin_name1": "Andhra Pradesh",
            "latitude": "17.044",
            "longitude": "78.9628"
        },
        {
            "key": "IN/509103",
            "place_name": "Wanaparthy H O",
            "admin_name1": "Andhra Pradesh",
            "latitude": "16.7831",
            "longitude": "78.5394"
        },
        {
            "key": "IN/509110",
            "place_name": "Madanapuram",
            "admin_name1": "Andhra Pradesh",
            "latitude": "17.6997",
            "longitude": "78.5592"
        },
        {
            "key": "IN/509113",
            "place_name": "Varna",
            "admin_name1": "Andhra Pradesh",
            "latitude": "17.6997",
            "longitude": "78.5592"
        },
        {
            "key": "IN/509115",
            "place_name": "Chandapur",
            "admin_name1": "Andhra Pradesh",
            "latitude": "17.6669",
            "longitude": "78.1972",
            "accuracy": "4"
        },
        {
            "key": "IN/509116",
            "place_name": "Rajapet",
            "admin_name1": "Andhra Pradesh",
            "latitude": "17.7325",
            "longitude": "78.9211",
            "accuracy": "4"
        },
        {
            "key": "IN/509117",
            "place_name": "Kalwakole",
            "admin_name1": "Andhra Pradesh",
            "latitude": "17.6997",
            "longitude": "78.5592"
        },
        {
            "key": "IN/509125",
            "place_name": "Gadwal H O",
            "admin_name1": "Andhra Pradesh",
            "latitude": "14.95",
            "longitude": "78.5"
        },
        {
            "key": "IN/509126",
            "place_name": "Rajoli",
            "admin_name1": "Andhra Pradesh",
            "latitude": "14.95",
            "longitude": "78.5",
            "accuracy": "4"
        },
        {
            "key": "IN/509127",
            "place_name": "Leeja",
            "admin_name1": "Andhra Pradesh",
            "latitude": "14.95",
            "longitude": "78.5"
        },
        {
            "key": "IN/509129",
            "place_name": "Macherla (M)",
            "admin_name1": "Andhra Pradesh",
            "latitude": "14.95",
            "longitude": "78.5"
        },
        {
            "key": "IN/509135",
            "place_name": "Uppal Camp",
            "admin_name1": "Andhra Pradesh",
            "latitude": "16.7831",
            "longitude": "78.5394"
        },
        {
            "key": "IN/509137",
            "place_name": "Utnoor",
            "admin_name1": "Andhra Pradesh",
            "latitude": "16.7831",
            "longitude": "78.5394"
        },
        {
            "key": "IN/509141",
            "place_name": "Padu",
            "admin_name1": "Andhra Pradesh",
            "latitude": "16.7831",
            "longitude": "78.5394"
        },
        {
            "key": "IN/509143",
            "place_name": "Yelkur",
            "admin_name1": "Andhra Pradesh",
            "latitude": "16.7831",
            "longitude": "78.5394"
        },
        {
            "key": "IN/509144",
            "place_name": "Waddepalli",
            "admin_name1": "Andhra Pradesh",
            "latitude": "16.7831",
            "longitude": "78.5394"
        },
        {
            "key": "IN/509147",
            "place_name": "Palavoi",
            "admin_name1": "Andhra Pradesh",
            "latitude": "16.7831",
            "longitude": "78.5394"
        },
        {
            "key": "IN/509151",
            "place_name": "Vallur",
            "admin_name1": "Andhra Pradesh",
            "latitude": "16.7831",
            "longitude": "78.5394"
        },
        {
            "key": "IN/509153",
            "place_name": "Undevally",
            "admin_name1": "Andhra Pradesh",
            "latitude": "16.7831",
            "longitude": "78.5394"
        },
        {
            "key": "IN/509155",
            "place_name": "Taksila",
            "admin_name1": "Andhra Pradesh",
            "latitude": "16.7831",
            "longitude": "78.5394"
        },
        {
            "key": "IN/509171",
            "place_name": "Tangal",
            "admin_name1": "Andhra Pradesh",
            "latitude": "16.7831",
            "longitude": "78.5394"
        },
        {
            "key": "IN/509202",
            "place_name": "Bala Nagar",
            "admin_name1": "Andhra Pradesh",
            "latitude": "16.65",
            "longitude": "77.6667"
        },
        {
            "key": "IN/509204",
            "place_name": "Devara Kadra",
            "admin_name1": "Andhra Pradesh",
            "latitude": "16.65",
            "longitude": "77.6667"
        },
        {
            "key": "IN/509205",
            "place_name": "Dhanwada",
            "admin_name1": "Andhra Pradesh",
            "latitude": "16.65",
            "longitude": "77.6667",
            "accuracy": "4"
        },
        {
            "key": "IN/509209",
            "place_name": "Nagar Kurnool",
            "admin_name1": "Andhra Pradesh",
            "latitude": "16.65",
            "longitude": "77.6667"
        },
        {
            "key": "IN/509211",
            "place_name": "Jajapur",
            "admin_name1": "Andhra Pradesh",
            "latitude": "17.2067",
            "longitude": "78.34"
        },
        {
            "key": "IN/509215",
            "place_name": "Palem",
            "admin_name1": "Andhra Pradesh",
            "latitude": "17.2067",
            "longitude": "78.34"
        },
        {
            "key": "IN/509218",
            "place_name": "Nanajpur",
            "admin_name1": "Andhra Pradesh",
            "latitude": "17.2292",
            "longitude": "78.2903",
            "accuracy": "4"
        },
        {
            "key": "IN/509226",
            "place_name": "Indrakal",
            "admin_name1": "Andhra Pradesh",
            "latitude": "17.5283",
            "longitude": "79.7533"
        },
        {
            "key": "IN/509227",
            "place_name": "Tadia Pally",
            "admin_name1": "Andhra Pradesh",
            "latitude": "17.5283",
            "longitude": "79.7533"
        },
        {
            "key": "IN/509242",
            "place_name": "Rajapur",
            "admin_name1": "Andhra Pradesh",
            "latitude": "19.05",
            "longitude": "84.6667",
            "accuracy": "4"
        },
        {
            "key": "IN/509307",
            "place_name": "Edganpalli",
            "admin_name1": "Andhra Pradesh",
            "latitude": "16.65",
            "longitude": "77.5167"
        },
        {
            "key": "IN/509311",
            "place_name": "Utkur",
            "admin_name1": "Andhra Pradesh",
            "latitude": "16.65",
            "longitude": "77.5167",
            "accuracy": "4"
        },
        {
            "key": "IN/509323",
            "place_name": "Gagan Pahad",
            "admin_name1": "Andhra Pradesh",
            "latitude": "16.65",
            "longitude": "77.5167"
        },
        {
            "key": "IN/509324",
            "place_name": "Kalwa Kurthy",
            "admin_name1": "Andhra Pradesh",
            "latitude": "16.65",
            "longitude": "77.5167"
        },
        {
            "key": "IN/509325",
            "place_name": "Palmakole",
            "admin_name1": "Andhra Pradesh",
            "latitude": "16.65",
            "longitude": "77.5167"
        },
        {
            "key": "IN/509327",
            "place_name": "Madgul",
            "admin_name1": "Andhra Pradesh",
            "latitude": "16.65",
            "longitude": "77.5167"
        },
        {
            "key": "IN/509328",
            "place_name": "Tala Konda Palli",
            "admin_name1": "Andhra Pradesh",
            "latitude": "16.65",
            "longitude": "77.5167"
        },
        {
            "key": "IN/509334",
            "place_name": "Hunwada",
            "admin_name1": "Andhra Pradesh",
            "latitude": "16.65",
            "longitude": "77.5167"
        },
        {
            "key": "IN/509343",
            "place_name": "A Raichur",
            "admin_name1": "Andhra Pradesh",
            "latitude": "16.65",
            "longitude": "77.5167"
        },
        {
            "key": "IN/509347",
            "place_name": "Ibrahimbad",
            "admin_name1": "Andhra Pradesh",
            "latitude": "16.65",
            "longitude": "77.5167"
        },
        {
            "key": "IN/509349",
            "place_name": "Vangoor",
            "admin_name1": "Andhra Pradesh",
            "latitude": "16.65",
            "longitude": "77.5167"
        },
        {
            "key": "IN/509350",
            "place_name": "Husnabad",
            "admin_name1": "Andhra Pradesh",
            "latitude": "17.0667",
            "longitude": "77.65"
        },
        {
            "key": "IN/509353",
            "place_name": "Jaklair",
            "admin_name1": "Andhra Pradesh",
            "latitude": "16.65",
            "longitude": "77.5167"
        },
        {
            "key": "IN/509358",
            "place_name": "Kadthal",
            "admin_name1": "Andhra Pradesh",
            "latitude": "16.65",
            "longitude": "77.5167"
        },
        {
            "key": "IN/509375",
            "place_name": "Achampet (Wanaparthy)",
            "admin_name1": "Andhra Pradesh",
            "latitude": "16.65",
            "longitude": "77.5167"
        },
        {
            "key": "IN/509376",
            "place_name": "Uppnunthala",
            "admin_name1": "Andhra Pradesh",
            "latitude": "16.65",
            "longitude": "77.5167"
        },
        {
            "key": "IN/509383",
            "place_name": "Kadu Kuntla",
            "admin_name1": "Andhra Pradesh",
            "latitude": "16.65",
            "longitude": "77.5167"
        },
        {
            "key": "IN/509401",
            "place_name": "Lingal",
            "admin_name1": "Andhra Pradesh",
            "latitude": "16.2833",
            "longitude": "78.5167",
            "accuracy": "4"
        },
        {
            "key": "IN/509407",
            "place_name": "Damar Gidda",
            "admin_name1": "Andhra Pradesh",
            "latitude": "16.2833",
            "longitude": "78.5167"
        },
        {
            "key": "IN/509409",
            "place_name": "Lalkota",
            "admin_name1": "Andhra Pradesh",
            "latitude": "16.2833",
            "longitude": "78.5167"
        },
        {
            "key": "IN/509413",
            "place_name": "Padkal",
            "admin_name1": "Andhra Pradesh",
            "latitude": "16.2833",
            "longitude": "78.5167"
        },
        {
            "key": "IN/509416",
            "place_name": "V Markal",
            "admin_name1": "Andhra Pradesh",
            "latitude": "16.2833",
            "longitude": "78.5167"
        },
        {
            "key": "IN/509431",
            "place_name": "Yellikal",
            "admin_name1": "Andhra Pradesh",
            "latitude": "16.2833",
            "longitude": "78.5167"
        },
        {
            "key": "IN/515001",
            "place_name": "S B Mahaveer Road",
            "admin_name1": "Andhra Pradesh",
            "latitude": "14.3447",
            "longitude": "77.8319"
        },
        {
            "key": "IN/515005",
            "place_name": "Old Mla Quarters (Hyd)",
            "admin_name1": "Andhra Pradesh",
            "latitude": "14.3447",
            "longitude": "77.8319"
        },
        {
            "key": "IN/515201",
            "place_name": "Hindupur H O",
            "admin_name1": "Andhra Pradesh",
            "latitude": "14.3447",
            "longitude": "77.8319"
        },
        {
            "key": "IN/515202",
            "place_name": "Hindupur Extension",
            "admin_name1": "Andhra Pradesh",
            "latitude": "14.3447",
            "longitude": "77.8319"
        },
        {
            "key": "IN/515212",
            "place_name": "Hindupur Sevamandir",
            "admin_name1": "Andhra Pradesh",
            "latitude": "14.3447",
            "longitude": "77.8319"
        },
        {
            "key": "IN/515232",
            "place_name": "Vanavolu",
            "admin_name1": "Andhra Pradesh",
            "latitude": "14.3447",
            "longitude": "77.8319"
        },
        {
            "key": "IN/515282",
            "place_name": "Halakur",
            "admin_name1": "Andhra Pradesh",
            "latitude": "14.3447",
            "longitude": "77.8319"
        },
        {
            "key": "IN/515286",
            "place_name": "Hemavathi",
            "admin_name1": "Andhra Pradesh",
            "latitude": "14.3447",
            "longitude": "77.8319"
        },
        {
            "key": "IN/515301",
            "place_name": "Madakasira",
            "admin_name1": "Andhra Pradesh",
            "latitude": "13.9369",
            "longitude": "77.2694",
            "accuracy": "4"
        },
        {
            "key": "IN/515303",
            "place_name": "Kallu Marri",
            "admin_name1": "Andhra Pradesh",
            "latitude": "13.9369",
            "longitude": "77.2694"
        },
        {
            "key": "IN/515306",
            "place_name": "Basavanahalli",
            "admin_name1": "Andhra Pradesh",
            "latitude": "13.9369",
            "longitude": "77.2694"
        },
        {
            "key": "IN/515311",
            "place_name": "Agali",
            "admin_name1": "Andhra Pradesh",
            "latitude": "13.8762",
            "longitude": "77.4354"
        },
        {
            "key": "IN/515331",
            "place_name": "Lepakshi",
            "admin_name1": "Andhra Pradesh",
            "latitude": "13.8156",
            "longitude": "77.6014",
            "accuracy": "4"
        },
        {
            "key": "IN/515332",
            "place_name": "Dema Kethe Palli",
            "admin_name1": "Andhra Pradesh",
            "latitude": "13.8156",
            "longitude": "77.6014"
        },
        {
            "key": "IN/515404",
            "place_name": "Nagasamudram",
            "admin_name1": "Andhra Pradesh",
            "latitude": "14.3",
            "longitude": "77.65",
            "accuracy": "4"
        },
        {
            "key": "IN/515408",
            "place_name": "Yadiki",
            "admin_name1": "Andhra Pradesh",
            "latitude": "15.05",
            "longitude": "77.8833",
            "accuracy": "4"
        },
        {
            "key": "IN/515411",
            "place_name": "Tadapatri H O",
            "admin_name1": "Andhra Pradesh",
            "latitude": "14.6833",
            "longitude": "77.8722"
        },
        {
            "key": "IN/515412",
            "place_name": "Yerrangunta Palli",
            "admin_name1": "Andhra Pradesh",
            "latitude": "14.6833",
            "longitude": "77.8722"
        },
        {
            "key": "IN/515419",
            "place_name": "Challavari Palli",
            "admin_name1": "Andhra Pradesh",
            "latitude": "14.6833",
            "longitude": "77.8722"
        },
        {
            "key": "IN/515456",
            "place_name": "Nagaruru",
            "admin_name1": "Andhra Pradesh",
            "latitude": "14.6833",
            "longitude": "77.8722"
        },
        {
            "key": "IN/515458",
            "place_name": "Chandana",
            "admin_name1": "Andhra Pradesh",
            "latitude": "14.6833",
            "longitude": "77.8722"
        },
        {
            "key": "IN/515465",
            "place_name": "Yellanur",
            "admin_name1": "Andhra Pradesh",
            "latitude": "14.7",
            "longitude": "78.0833",
            "accuracy": "4"
        },
        {
            "key": "IN/515551",
            "place_name": "Nallacheruvu",
            "admin_name1": "Andhra Pradesh",
            "latitude": "14.0944",
            "longitude": "78.2056"
        },
        {
            "key": "IN/515561",
            "place_name": "Obuladevarachervu",
            "admin_name1": "Andhra Pradesh",
            "latitude": "14.0944",
            "longitude": "78.2056"
        },
        {
            "key": "IN/515571",
            "place_name": "Tanakallu",
            "admin_name1": "Andhra Pradesh",
            "latitude": "13.9167",
            "longitude": "78.1833",
            "accuracy": "4"
        },
        {
            "key": "IN/515581",
            "place_name": "Talupula",
            "admin_name1": "Andhra Pradesh",
            "latitude": "14.25",
            "longitude": "78.2667",
            "accuracy": "4"
        },
        {
            "key": "IN/515591",
            "place_name": "Kadiri",
            "admin_name1": "Andhra Pradesh",
            "latitude": "14.1167",
            "longitude": "78.1667",
            "accuracy": "4"
        },
        {
            "key": "IN/515631",
            "place_name": "Tadi Marri",
            "admin_name1": "Andhra Pradesh",
            "latitude": "14.3447",
            "longitude": "77.8319"
        },
        {
            "key": "IN/515661",
            "place_name": "Bathala Palle",
            "admin_name1": "Andhra Pradesh",
            "latitude": "14.3447",
            "longitude": "77.8319"
        },
        {
            "key": "IN/515701",
            "place_name": "Samudram",
            "admin_name1": "Andhra Pradesh",
            "latitude": "14.3447",
            "longitude": "77.8319"
        },
        {
            "key": "IN/515712",
            "place_name": "Jalli Palli",
            "admin_name1": "Andhra Pradesh",
            "latitude": "14.3447",
            "longitude": "77.8319"
        },
        {
            "key": "IN/515761",
            "place_name": "Kalyan Durg",
            "admin_name1": "Andhra Pradesh",
            "latitude": "14.3447",
            "longitude": "77.8319"
        },
        {
            "key": "IN/515762",
            "place_name": "Pala Voyi",
            "admin_name1": "Andhra Pradesh",
            "latitude": "14.3447",
            "longitude": "77.8319"
        },
        {
            "key": "IN/515774",
            "place_name": "Kalluru R S",
            "admin_name1": "Andhra Pradesh",
            "latitude": "14.3447",
            "longitude": "77.8319"
        },
        {
            "key": "IN/515801",
            "place_name": "Rajendranagar",
            "admin_name1": "Andhra Pradesh",
            "latitude": "15.0167",
            "longitude": "77.3833"
        },
        {
            "key": "IN/515803",
            "place_name": "Old Guntakal",
            "admin_name1": "Andhra Pradesh",
            "latitude": "15.0167",
            "longitude": "77.3833"
        },
        {
            "key": "IN/515812",
            "place_name": "Urvakonda",
            "admin_name1": "Andhra Pradesh",
            "latitude": "15.0167",
            "longitude": "77.3833"
        },
        {
            "key": "IN/515813",
            "place_name": "Chabala",
            "admin_name1": "Andhra Pradesh",
            "latitude": "15.0167",
            "longitude": "77.3833"
        },
        {
            "key": "IN/515832",
            "place_name": "Vajrakarur",
            "admin_name1": "Andhra Pradesh",
            "latitude": "15.0167",
            "longitude": "77.3833",
            "accuracy": "4"
        },
        {
            "key": "IN/515834",
            "place_name": "Ragula Padu",
            "admin_name1": "Andhra Pradesh",
            "latitude": "15.0167",
            "longitude": "77.3833"
        },
        {
            "key": "IN/515844",
            "place_name": "Gadde Kallu",
            "admin_name1": "Andhra Pradesh",
            "latitude": "15.0167",
            "longitude": "77.3833"
        },
        {
            "key": "IN/515862",
            "place_name": "B T Project",
            "admin_name1": "Andhra Pradesh",
            "latitude": "15.0167",
            "longitude": "77.3833"
        },
        {
            "key": "IN/515867",
            "place_name": "Udegolam",
            "admin_name1": "Andhra Pradesh",
            "latitude": "15.0167",
            "longitude": "77.3833"
        },
        {
            "key": "IN/515872",
            "place_name": "Harial",
            "admin_name1": "Andhra Pradesh",
            "latitude": "15.0167",
            "longitude": "77.3833"
        },
        {
            "key": "IN/516001",
            "place_name": "Cdp Mochampet",
            "admin_name1": "Andhra Pradesh",
            "latitude": "14.5917",
            "longitude": "78.9389"
        },
        {
            "key": "IN/516004",
            "place_name": "Yerra Mukkapalli Cuddapah",
            "admin_name1": "Andhra Pradesh",
            "latitude": "14.5917",
            "longitude": "78.9389"
        },
        {
            "key": "IN/516005",
            "place_name": "Machupalli (Cuddapah)",
            "admin_name1": "Andhra Pradesh",
            "latitude": "14.5917",
            "longitude": "78.9389"
        },
        {
            "key": "IN/516108",
            "place_name": "Obulavari Palle",
            "admin_name1": "Andhra Pradesh",
            "latitude": "14.7917",
            "longitude": "79.8917"
        },
        {
            "key": "IN/516113",
            "place_name": "T Kamma Palle",
            "admin_name1": "Andhra Pradesh",
            "latitude": "14.2333",
            "longitude": "79.7333"
        },
        {
            "key": "IN/516114",
            "place_name": "Yerraguntla Kota",
            "admin_name1": "Andhra Pradesh",
            "latitude": "14.2333",
            "longitude": "79.7333"
        },
        {
            "key": "IN/516115",
            "place_name": "Rajampet R S",
            "admin_name1": "Andhra Pradesh",
            "latitude": "14.2333",
            "longitude": "79.7333"
        },
        {
            "key": "IN/516118",
            "place_name": "Palle",
            "admin_name1": "Andhra Pradesh",
            "latitude": "14.2333",
            "longitude": "79.7333"
        },
        {
            "key": "IN/516119",
            "place_name": "Utukuru",
            "admin_name1": "Andhra Pradesh",
            "latitude": "14.2333",
            "longitude": "79.7333",
            "accuracy": "4"
        },
        {
            "key": "IN/516120",
            "place_name": "Galivari Palle",
            "admin_name1": "Andhra Pradesh",
            "latitude": "14.7917",
            "longitude": "79.8917"
        },
        {
            "key": "IN/516130",
            "place_name": "T Sundupalle",
            "admin_name1": "Andhra Pradesh",
            "latitude": "14.7917",
            "longitude": "79.8917"
        },
        {
            "key": "IN/516133",
            "place_name": "Madithadu",
            "admin_name1": "Andhra Pradesh",
            "latitude": "14.7917",
            "longitude": "79.8917"
        },
        {
            "key": "IN/516134",
            "place_name": "Tallapaka",
            "admin_name1": "Andhra Pradesh",
            "latitude": "14.7917",
            "longitude": "79.8917"
        },
        {
            "key": "IN/516151",
            "place_name": "Tangutur",
            "admin_name1": "Andhra Pradesh",
            "latitude": "15.35",
            "longitude": "80.05",
            "accuracy": "4"
        },
        {
            "key": "IN/516173",
            "place_name": "Onipenta",
            "admin_name1": "Andhra Pradesh",
            "latitude": "14.7917",
            "longitude": "79.8917"
        },
        {
            "key": "IN/516215",
            "place_name": "Sambe Palli",
            "admin_name1": "Andhra Pradesh",
            "latitude": "14.3917",
            "longitude": "78.775"
        },
        {
            "key": "IN/516217",
            "place_name": "Kalas Pad",
            "admin_name1": "Andhra Pradesh",
            "latitude": "14.3917",
            "longitude": "78.775"
        },
        {
            "key": "IN/516227",
            "place_name": "Badvel",
            "admin_name1": "Andhra Pradesh",
            "latitude": "14.75",
            "longitude": "79.05",
            "accuracy": "4"
        },
        {
            "key": "IN/516247",
            "place_name": "Madhavaram (C)",
            "admin_name1": "Andhra Pradesh",
            "latitude": "14.3917",
            "longitude": "78.775"
        },
        {
            "key": "IN/516257",
            "place_name": "Lakki Reddi Palle",
            "admin_name1": "Andhra Pradesh",
            "latitude": "14.3917",
            "longitude": "78.775"
        },
        {
            "key": "IN/516259",
            "place_name": "Palle",
            "admin_name1": "Andhra Pradesh",
            "latitude": "14.3917",
            "longitude": "78.775"
        },
        {
            "key": "IN/516260",
            "place_name": "Chakrayapeta",
            "admin_name1": "Andhra Pradesh",
            "latitude": "14.0333",
            "longitude": "78.5"
        },
        {
            "key": "IN/516267",
            "place_name": "Galivedu",
            "admin_name1": "Andhra Pradesh",
            "latitude": "14.0333",
            "longitude": "78.5",
            "accuracy": "4"
        },
        {
            "key": "IN/516268",
            "place_name": "Veera Balle",
            "admin_name1": "Andhra Pradesh",
            "latitude": "14.0333",
            "longitude": "78.5"
        },
        {
            "key": "IN/516271",
            "place_name": "Eguvagottiveedu",
            "admin_name1": "Andhra Pradesh",
            "latitude": "14.3917",
            "longitude": "78.775"
        },
        {
            "key": "IN/516290",
            "place_name": "T Sadipiralla",
            "admin_name1": "Andhra Pradesh",
            "latitude": "14.3917",
            "longitude": "78.775"
        },
        {
            "key": "IN/516293",
            "place_name": "Valluru",
            "admin_name1": "Andhra Pradesh",
            "latitude": "14.3917",
            "longitude": "78.775"
        },
        {
            "key": "IN/516309",
            "place_name": "Yerraguntla West",
            "admin_name1": "Andhra Pradesh",
            "latitude": "14.4833",
            "longitude": "78.1333"
        },
        {
            "key": "IN/516311",
            "place_name": "Urutur",
            "admin_name1": "Andhra Pradesh",
            "latitude": "14.4833",
            "longitude": "78.1333"
        },
        {
            "key": "IN/516321",
            "place_name": "Veerappanayuni Palle",
            "admin_name1": "Andhra Pradesh",
            "latitude": "14.4833",
            "longitude": "78.1333"
        },
        {
            "key": "IN/516329",
            "place_name": "Vaim Palle",
            "admin_name1": "Andhra Pradesh",
            "latitude": "14.4833",
            "longitude": "78.1333"
        },
        {
            "key": "IN/516330",
            "place_name": "Veeranna Cattupalle",
            "admin_name1": "Andhra Pradesh",
            "latitude": "14.4833",
            "longitude": "78.1333"
        },
        {
            "key": "IN/516350",
            "place_name": "Talla Palle",
            "admin_name1": "Andhra Pradesh",
            "latitude": "14.4833",
            "longitude": "78.1333"
        },
        {
            "key": "IN/516356",
            "place_name": "Nakkala Dinne",
            "admin_name1": "Andhra Pradesh",
            "latitude": "14.4833",
            "longitude": "78.1333"
        },
        {
            "key": "IN/516361",
            "place_name": "Holmespet",
            "admin_name1": "Andhra Pradesh",
            "latitude": "14.4833",
            "longitude": "78.1333"
        },
        {
            "key": "IN/516365",
            "place_name": "Upparapalle",
            "admin_name1": "Andhra Pradesh",
            "latitude": "14.4833",
            "longitude": "78.1333"
        },
        {
            "key": "IN/516366",
            "place_name": "Pallavolu",
            "admin_name1": "Andhra Pradesh",
            "latitude": "14.4833",
            "longitude": "78.1333"
        },
        {
            "key": "IN/516396",
            "place_name": "Lingala",
            "admin_name1": "Andhra Pradesh",
            "latitude": "14.4833",
            "longitude": "78.1333",
            "accuracy": "4"
        },
        {
            "key": "IN/516421",
            "place_name": "Agadur",
            "admin_name1": "Andhra Pradesh",
            "latitude": "14.7",
            "longitude": "78.1667"
        },
        {
            "key": "IN/516432",
            "place_name": "Vaddi Rala",
            "admin_name1": "Andhra Pradesh",
            "latitude": "14.7",
            "longitude": "78.1667"
        },
        {
            "key": "IN/516434",
            "place_name": "Jammalamudugu North",
            "admin_name1": "Andhra Pradesh",
            "latitude": "14.7",
            "longitude": "78.1667"
        },
        {
            "key": "IN/516437",
            "place_name": "S Uppala Padu",
            "admin_name1": "Andhra Pradesh",
            "latitude": "14.7",
            "longitude": "78.1667"
        },
        {
            "key": "IN/516441",
            "place_name": "Devagudi",
            "admin_name1": "Andhra Pradesh",
            "latitude": "14.7",
            "longitude": "78.1667"
        },
        {
            "key": "IN/516464",
            "place_name": "Lavanur",
            "admin_name1": "Andhra Pradesh",
            "latitude": "14.7",
            "longitude": "78.1667",
            "accuracy": "4"
        },
        {
            "key": "IN/516474",
            "place_name": "Talla Proddatur",
            "admin_name1": "Andhra Pradesh",
            "latitude": "14.7",
            "longitude": "78.1667"
        },
        {
            "key": "IN/516484",
            "place_name": "Balapanur",
            "admin_name1": "Andhra Pradesh",
            "latitude": "14.7",
            "longitude": "78.1667"
        },
        {
            "key": "IN/517001",
            "place_name": "C T R Bazar",
            "admin_name1": "Andhra Pradesh",
            "latitude": "13.8183",
            "longitude": "78.91"
        },
        {
            "key": "IN/517002",
            "place_name": "Kajoor",
            "admin_name1": "Andhra Pradesh",
            "latitude": "13.8183",
            "longitude": "78.91"
        },
        {
            "key": "IN/517101",
            "place_name": "Chandragiri H O",
            "admin_name1": "Andhra Pradesh",
            "latitude": "13.5833",
            "longitude": "79.0889"
        },
        {
            "key": "IN/517112",
            "place_name": "Pakala",
            "admin_name1": "Andhra Pradesh",
            "latitude": "13.4667",
            "longitude": "79.1167",
            "accuracy": "4"
        },
        {
            "key": "IN/517113",
            "place_name": "Kallur",
            "admin_name1": "Andhra Pradesh",
            "latitude": "13.5667",
            "longitude": "79",
            "accuracy": "4"
        },
        {
            "key": "IN/517115",
            "place_name": "Maddinavani Palle",
            "admin_name1": "Andhra Pradesh",
            "latitude": "13.5167",
            "longitude": "79.0583"
        },
        {
            "key": "IN/517130",
            "place_name": "Iral",
            "admin_name1": "Andhra Pradesh",
            "latitude": "13.5833",
            "longitude": "79.0889"
        },
        {
            "key": "IN/517135",
            "place_name": "Pallur",
            "admin_name1": "Andhra Pradesh",
            "latitude": "13.5833",
            "longitude": "79.0889"
        },
        {
            "key": "IN/517139",
            "place_name": "Sami Reddi Palle",
            "admin_name1": "Andhra Pradesh",
            "latitude": "13.5833",
            "longitude": "79.0889"
        },
        {
            "key": "IN/517141",
            "place_name": "Gajula Palli",
            "admin_name1": "Andhra Pradesh",
            "latitude": "13.5833",
            "longitude": "79.0889"
        },
        {
            "key": "IN/517148",
            "place_name": "Iiavaripalle",
            "admin_name1": "Andhra Pradesh",
            "latitude": "13.5833",
            "longitude": "79.0889"
        },
        {
            "key": "IN/517151",
            "place_name": "Kalva Gunta",
            "admin_name1": "Andhra Pradesh",
            "latitude": "13.5833",
            "longitude": "79.0889"
        },
        {
            "key": "IN/517152",
            "place_name": "Damal Cheruvu",
            "admin_name1": "Andhra Pradesh",
            "latitude": "13.5833",
            "longitude": "79.0889"
        },
        {
            "key": "IN/517160",
            "place_name": "Odde Palle",
            "admin_name1": "Andhra Pradesh",
            "latitude": "13.5833",
            "longitude": "79.0889"
        },
        {
            "key": "IN/517163",
            "place_name": "Palakur",
            "admin_name1": "Andhra Pradesh",
            "latitude": "13.5833",
            "longitude": "79.0889"
        },
        {
            "key": "IN/517165",
            "place_name": "Yellampalle Santha Gate",
            "admin_name1": "Andhra Pradesh",
            "latitude": "13.5833",
            "longitude": "79.0889"
        },
        {
            "key": "IN/517194",
            "place_name": "Bakarapet",
            "admin_name1": "Andhra Pradesh",
            "latitude": "13.7167",
            "longitude": "79.15"
        },
        {
            "key": "IN/517196",
            "place_name": "Palle",
            "admin_name1": "Andhra Pradesh",
            "latitude": "13.7167",
            "longitude": "79.15"
        },
        {
            "key": "IN/517197",
            "place_name": "Yerravaripalem",
            "admin_name1": "Andhra Pradesh",
            "latitude": "13.7167",
            "longitude": "79.15",
            "accuracy": "4"
        },
        {
            "key": "IN/517215",
            "place_name": "Talupula",
            "admin_name1": "Andhra Pradesh",
            "latitude": "14.25",
            "longitude": "78.2667"
        },
        {
            "key": "IN/517217",
            "place_name": "Jandla",
            "admin_name1": "Andhra Pradesh",
            "latitude": "13.7",
            "longitude": "78.7444"
        },
        {
            "key": "IN/517234",
            "place_name": "Kalikiri",
            "admin_name1": "Andhra Pradesh",
            "latitude": "13.6333",
            "longitude": "78.8",
            "accuracy": "4"
        },
        {
            "key": "IN/517236",
            "place_name": "Kalakada",
            "admin_name1": "Andhra Pradesh",
            "latitude": "13.8167",
            "longitude": "78.8",
            "accuracy": "4"
        },
        {
            "key": "IN/517239",
            "place_name": "Palamanda",
            "admin_name1": "Andhra Pradesh",
            "latitude": "13.725",
            "longitude": "78.8"
        },
        {
            "key": "IN/517240",
            "place_name": "Erra Kota Palle",
            "admin_name1": "Andhra Pradesh",
            "latitude": "13.7",
            "longitude": "78.7444"
        },
        {
            "key": "IN/517250",
            "place_name": "Vanamaladinne",
            "admin_name1": "Andhra Pradesh",
            "latitude": "13.7",
            "longitude": "78.7444"
        },
        {
            "key": "IN/517299",
            "place_name": "Vayalpad",
            "admin_name1": "Andhra Pradesh",
            "latitude": "13.65",
            "longitude": "78.6333",
            "accuracy": "4"
        },
        {
            "key": "IN/517301",
            "place_name": "Kali Cherla",
            "admin_name1": "Andhra Pradesh",
            "latitude": "13.55",
            "longitude": "78.5"
        },
        {
            "key": "IN/517319",
            "place_name": "Samudram",
            "admin_name1": "Andhra Pradesh",
            "latitude": "13.55",
            "longitude": "78.5"
        },
        {
            "key": "IN/517325",
            "place_name": "Madanapalle H O",
            "admin_name1": "Andhra Pradesh",
            "latitude": "13.55",
            "longitude": "78.5"
        },
        {
            "key": "IN/517327",
            "place_name": "Madanapalle",
            "admin_name1": "Andhra Pradesh",
            "latitude": "13.55",
            "longitude": "78.5",
            "accuracy": "4"
        },
        {
            "key": "IN/517408",
            "place_name": "Palamner H O",
            "admin_name1": "Andhra Pradesh",
            "latitude": "13.8183",
            "longitude": "78.91"
        },
        {
            "key": "IN/517415",
            "place_name": "Baireddi Palle",
            "admin_name1": "Andhra Pradesh",
            "latitude": "13.8183",
            "longitude": "78.91"
        },
        {
            "key": "IN/517416",
            "place_name": "Bangaru Palem",
            "admin_name1": "Andhra Pradesh",
            "latitude": "13.8183",
            "longitude": "78.91"
        },
        {
            "key": "IN/517422",
            "place_name": "Yadammarri",
            "admin_name1": "Andhra Pradesh",
            "latitude": "13.8183",
            "longitude": "78.91"
        },
        {
            "key": "IN/517501",
            "place_name": "Jagannathapuram",
            "admin_name1": "Andhra Pradesh",
            "latitude": "14.55",
            "longitude": "78.75"
        },
        {
            "key": "IN/517502",
            "place_name": "S V Agri College",
            "admin_name1": "Andhra Pradesh",
            "latitude": "14.55",
            "longitude": "78.75"
        },
        {
            "key": "IN/517503",
            "place_name": "Padi",
            "admin_name1": "Andhra Pradesh",
            "latitude": "14.55",
            "longitude": "78.75"
        },
        {
            "key": "IN/517507",
            "place_name": "S V Medical College",
            "admin_name1": "Andhra Pradesh",
            "latitude": "14.55",
            "longitude": "78.75"
        },
        {
            "key": "IN/517516",
            "place_name": "Sanam Batla",
            "admin_name1": "Andhra Pradesh",
            "latitude": "14.55",
            "longitude": "78.75"
        },
        {
            "key": "IN/517520",
            "place_name": "Railway Colony",
            "admin_name1": "Andhra Pradesh",
            "latitude": "14.55",
            "longitude": "78.75"
        },
        {
            "key": "IN/517541",
            "place_name": "Varadia Palem",
            "admin_name1": "Andhra Pradesh",
            "latitude": "14.55",
            "longitude": "78.75"
        },
        {
            "key": "IN/517561",
            "place_name": "Balijapalle",
            "admin_name1": "Andhra Pradesh",
            "latitude": "14.55",
            "longitude": "78.75"
        },
        {
            "key": "IN/517567",
            "place_name": "Nadavalur",
            "admin_name1": "Andhra Pradesh",
            "latitude": "14.55",
            "longitude": "78.75"
        },
        {
            "key": "IN/517569",
            "place_name": "Pachikapallam",
            "admin_name1": "Andhra Pradesh",
            "latitude": "14.55",
            "longitude": "78.75"
        },
        {
            "key": "IN/517589",
            "place_name": "Nagalapuram",
            "admin_name1": "Andhra Pradesh",
            "latitude": "15.7667",
            "longitude": "77.9167",
            "accuracy": "4"
        },
        {
            "key": "IN/517590",
            "place_name": "Nagari",
            "admin_name1": "Andhra Pradesh",
            "latitude": "13.3333",
            "longitude": "79.5833",
            "accuracy": "4"
        },
        {
            "key": "IN/517592",
            "place_name": "Ekambara Kuppam",
            "admin_name1": "Andhra Pradesh",
            "latitude": "13.3333",
            "longitude": "79.5833"
        },
        {
            "key": "IN/517619",
            "place_name": "Yerpedu",
            "admin_name1": "Andhra Pradesh",
            "latitude": "13.6833",
            "longitude": "79.6",
            "accuracy": "4"
        },
        {
            "key": "IN/517620",
            "place_name": "Pallam",
            "admin_name1": "Andhra Pradesh",
            "latitude": "13.6833",
            "longitude": "79.6"
        },
        {
            "key": "IN/518002",
            "place_name": "Maddurnagar",
            "admin_name1": "Andhra Pradesh",
            "latitude": "15.3333",
            "longitude": "77.9381"
        },
        {
            "key": "IN/518011",
            "place_name": "Hussain Puram",
            "admin_name1": "Andhra Pradesh",
            "latitude": "15.3333",
            "longitude": "77.9381"
        },
        {
            "key": "IN/518017",
            "place_name": "Edururu",
            "admin_name1": "Andhra Pradesh",
            "latitude": "15.3333",
            "longitude": "77.9381"
        },
        {
            "key": "IN/518018",
            "place_name": "Ulchal",
            "admin_name1": "Andhra Pradesh",
            "latitude": "15.3333",
            "longitude": "77.9381"
        },
        {
            "key": "IN/518122",
            "place_name": "Owk",
            "admin_name1": "Andhra Pradesh",
            "latitude": "15.2167",
            "longitude": "78.1167",
            "accuracy": "4"
        },
        {
            "key": "IN/518124",
            "place_name": "Banagana Palle",
            "admin_name1": "Andhra Pradesh",
            "latitude": "15.2167",
            "longitude": "78.1167"
        },
        {
            "key": "IN/518157",
            "place_name": "Injedu",
            "admin_name1": "Andhra Pradesh",
            "latitude": "15.1917",
            "longitude": "78.2083"
        },
        {
            "key": "IN/518165",
            "place_name": "Sanjamala",
            "admin_name1": "Andhra Pradesh",
            "latitude": "15.1667",
            "longitude": "78.3",
            "accuracy": "4"
        },
        {
            "key": "IN/518186",
            "place_name": "Illuri Kothapeta",
            "admin_name1": "Andhra Pradesh",
            "latitude": "15.1917",
            "longitude": "78.2083"
        },
        {
            "key": "IN/518206",
            "place_name": "Cement Nagar",
            "admin_name1": "Andhra Pradesh",
            "latitude": "15.3333",
            "longitude": "77.9381"
        },
        {
            "key": "IN/518220",
            "place_name": "Jaladurgan",
            "admin_name1": "Andhra Pradesh",
            "latitude": "15.3333",
            "longitude": "77.9381"
        },
        {
            "key": "IN/518225",
            "place_name": "Yerukala Cheruvu",
            "admin_name1": "Andhra Pradesh",
            "latitude": "15.3333",
            "longitude": "77.9381"
        },
        {
            "key": "IN/518301",
            "place_name": "Adoni Cotton Market",
            "admin_name1": "Andhra Pradesh",
            "latitude": "15.9083",
            "longitude": "77.2417"
        },
        {
            "key": "IN/518302",
            "place_name": "Adoni Arts College",
            "admin_name1": "Andhra Pradesh",
            "latitude": "15.9083",
            "longitude": "77.2417"
        },
        {
            "key": "IN/518333",
            "place_name": "Halvi",
            "admin_name1": "Andhra Pradesh",
            "latitude": "15.8833",
            "longitude": "77.1333",
            "accuracy": "4"
        },
        {
            "key": "IN/518346",
            "place_name": "Holala Gondi",
            "admin_name1": "Andhra Pradesh",
            "latitude": "15.9333",
            "longitude": "77.35"
        },
        {
            "key": "IN/518348",
            "place_name": "Hala Harvi",
            "admin_name1": "Andhra Pradesh",
            "latitude": "15.9333",
            "longitude": "77.35"
        },
        {
            "key": "IN/518349",
            "place_name": "Madhavaram",
            "admin_name1": "Andhra Pradesh",
            "latitude": "15.9333",
            "longitude": "77.35",
            "accuracy": "4"
        },
        {
            "key": "IN/518350",
            "place_name": "Kadivella",
            "admin_name1": "Andhra Pradesh",
            "latitude": "15.9083",
            "longitude": "77.2417"
        },
        {
            "key": "IN/518360",
            "place_name": "Yemmiganur",
            "admin_name1": "Andhra Pradesh",
            "latitude": "15.9083",
            "longitude": "77.2417"
        },
        {
            "key": "IN/518382",
            "place_name": "Hosur",
            "admin_name1": "Andhra Pradesh",
            "latitude": "15.9083",
            "longitude": "77.2417"
        },
        {
            "key": "IN/518385",
            "place_name": "Maddikere",
            "admin_name1": "Andhra Pradesh",
            "latitude": "15.9083",
            "longitude": "77.2417"
        },
        {
            "key": "IN/518465",
            "place_name": "Devanakonda",
            "admin_name1": "Andhra Pradesh",
            "latitude": "15.5333",
            "longitude": "77.55",
            "accuracy": "4"
        },
        {
            "key": "IN/518470",
            "place_name": "Handri Khairwadi",
            "admin_name1": "Andhra Pradesh",
            "latitude": "15.5333",
            "longitude": "77.55"
        },
        {
            "key": "IN/518510",
            "place_name": "Yerraguntla",
            "admin_name1": "Andhra Pradesh",
            "latitude": "14.6333",
            "longitude": "78.5333",
            "accuracy": "4"
        },
        {
            "key": "IN/518523",
            "place_name": "Bandi Atmakur",
            "admin_name1": "Andhra Pradesh",
            "latitude": "14.8",
            "longitude": "78.5583"
        },
        {
            "key": "IN/518543",
            "place_name": "Aallagadda H O",
            "admin_name1": "Andhra Pradesh",
            "latitude": "14.8",
            "longitude": "78.5583"
        },
        {
            "key": "IN/518553",
            "place_name": "Chagalamarri",
            "admin_name1": "Andhra Pradesh",
            "latitude": "14.9667",
            "longitude": "78.5833",
            "accuracy": "4"
        },
        {
            "key": "IN/518573",
            "place_name": "Yallur",
            "admin_name1": "Andhra Pradesh",
            "latitude": "14.8",
            "longitude": "78.5583"
        },
        {
            "key": "IN/518583",
            "place_name": "Gajula Palle",
            "admin_name1": "Andhra Pradesh",
            "latitude": "14.8",
            "longitude": "78.5583"
        },
        {
            "key": "IN/518669",
            "place_name": "Deebaguntla",
            "admin_name1": "Andhra Pradesh",
            "latitude": "15.3333",
            "longitude": "77.9381"
        },
        {
            "key": "IN/520001",
            "place_name": "Wynchipeta",
            "admin_name1": "Andhra Pradesh",
            "latitude": "15.8677",
            "longitude": "80.4563"
        },
        {
            "key": "IN/520003",
            "place_name": "Hanumanulapeta",
            "admin_name1": "Andhra Pradesh",
            "latitude": "15.8677",
            "longitude": "80.4563"
        },
        {
            "key": "IN/520004",
            "place_name": "Machavaram (Vja)",
            "admin_name1": "Andhra Pradesh",
            "latitude": "15.8677",
            "longitude": "80.4563"
        },
        {
            "key": "IN/520006",
            "place_name": "P & T Colony",
            "admin_name1": "Andhra Pradesh",
            "latitude": "15.8677",
            "longitude": "80.4563"
        },
        {
            "key": "IN/520011",
            "place_name": "Lakshminagar",
            "admin_name1": "Andhra Pradesh",
            "latitude": "15.8677",
            "longitude": "80.4563"
        },
        {
            "key": "IN/520050",
            "place_name": "Dep Vijayawada",
            "admin_name1": "Andhra Pradesh",
            "latitude": "15.8677",
            "longitude": "80.4563"
        },
        {
            "key": "IN/521001",
            "place_name": "Inugudurpet",
            "admin_name1": "Andhra Pradesh",
            "latitude": "16.5056",
            "longitude": "80.9111"
        },
        {
            "key": "IN/521003",
            "place_name": "Machilipatnam Port",
            "admin_name1": "Andhra Pradesh",
            "latitude": "16.5056",
            "longitude": "80.9111"
        },
        {
            "key": "IN/521101",
            "place_name": "G Varam Centre",
            "admin_name1": "Andhra Pradesh",
            "latitude": "15.95",
            "longitude": "80.9167"
        },
        {
            "key": "IN/521102",
            "place_name": "Bacon Factory",
            "admin_name1": "Andhra Pradesh",
            "latitude": "15.95",
            "longitude": "80.9167"
        },
        {
            "key": "IN/521104",
            "place_name": "Nadamanuru",
            "admin_name1": "Andhra Pradesh",
            "latitude": "15.95",
            "longitude": "80.9167"
        },
        {
            "key": "IN/521105",
            "place_name": "Hanuman Jn",
            "admin_name1": "Andhra Pradesh",
            "latitude": "15.95",
            "longitude": "80.9167"
        },
        {
            "key": "IN/521109",
            "place_name": "Gali Gopuram",
            "admin_name1": "Andhra Pradesh",
            "latitude": "15.95",
            "longitude": "80.9167"
        },
        {
            "key": "IN/521110",
            "place_name": "Veera Valli",
            "admin_name1": "Andhra Pradesh",
            "latitude": "15.95",
            "longitude": "80.9167"
        },
        {
            "key": "IN/521120",
            "place_name": "Nagayalanka",
            "admin_name1": "Andhra Pradesh",
            "latitude": "15.95",
            "longitude": "80.9167",
            "accuracy": "4"
        },
        {
            "key": "IN/521123",
            "place_name": "Gandhi Keshtram",
            "admin_name1": "Andhra Pradesh",
            "latitude": "15.95",
            "longitude": "80.9167"
        },
        {
            "key": "IN/521124",
            "place_name": "V Kothapalem",
            "admin_name1": "Andhra Pradesh",
            "latitude": "15.95",
            "longitude": "80.9167"
        },
        {
            "key": "IN/521126",
            "place_name": "Challa Palli",
            "admin_name1": "Andhra Pradesh",
            "latitude": "15.95",
            "longitude": "80.9167"
        },
        {
            "key": "IN/521131",
            "place_name": "Laxmipuram",
            "admin_name1": "Andhra Pradesh",
            "latitude": "15.95",
            "longitude": "80.9167"
        },
        {
            "key": "IN/521144",
            "place_name": "Edupugallu",
            "admin_name1": "Andhra Pradesh",
            "latitude": "15.95",
            "longitude": "80.9167"
        },
        {
            "key": "IN/521148",
            "place_name": "Elammarru",
            "admin_name1": "Andhra Pradesh",
            "latitude": "15.95",
            "longitude": "80.9167"
        },
        {
            "key": "IN/521155",
            "place_name": "Vanukuru",
            "admin_name1": "Andhra Pradesh",
            "latitude": "15.95",
            "longitude": "80.9167"
        },
        {
            "key": "IN/521171",
            "place_name": "Jayanthi",
            "admin_name1": "Andhra Pradesh",
            "latitude": "15.95",
            "longitude": "80.9167"
        },
        {
            "key": "IN/521182",
            "place_name": "Chandarla Padu",
            "admin_name1": "Andhra Pradesh",
            "latitude": "15.95",
            "longitude": "80.9167"
        },
        {
            "key": "IN/521214",
            "place_name": "T Sanubanda",
            "admin_name1": "Andhra Pradesh",
            "latitude": "16.5056",
            "longitude": "80.9111"
        },
        {
            "key": "IN/521226",
            "place_name": "Ibrahimpatnam (Krishna)",
            "admin_name1": "Andhra Pradesh",
            "latitude": "16.5056",
            "longitude": "80.9111"
        },
        {
            "key": "IN/521250",
            "place_name": "Veeranki Lock",
            "admin_name1": "Andhra Pradesh",
            "latitude": "16.5056",
            "longitude": "80.9111"
        },
        {
            "key": "IN/521301",
            "place_name": "Jagannadapuram",
            "admin_name1": "Andhra Pradesh",
            "latitude": "16.5833",
            "longitude": "81.3"
        },
        {
            "key": "IN/521311",
            "place_name": "Indupalli",
            "admin_name1": "Andhra Pradesh",
            "latitude": "16.5833",
            "longitude": "81.3"
        },
        {
            "key": "IN/521321",
            "place_name": "Janardhanapuram",
            "admin_name1": "Andhra Pradesh",
            "latitude": "16.5833",
            "longitude": "81.3"
        },
        {
            "key": "IN/521327",
            "place_name": "Tamrisa",
            "admin_name1": "Andhra Pradesh",
            "latitude": "16.5833",
            "longitude": "81.3"
        },
        {
            "key": "IN/521333",
            "place_name": "Kallklur H O",
            "admin_name1": "Andhra Pradesh",
            "latitude": "16.5833",
            "longitude": "81.3"
        },
        {
            "key": "IN/521338",
            "place_name": "Agraharam",
            "admin_name1": "Andhra Pradesh",
            "latitude": "18.3333",
            "longitude": "84.1167"
        },
        {
            "key": "IN/521340",
            "place_name": "Pallevada",
            "admin_name1": "Andhra Pradesh",
            "latitude": "16.5833",
            "longitude": "81.3",
            "accuracy": "4"
        },
        {
            "key": "IN/521344",
            "place_name": "Kali Dindi",
            "admin_name1": "Andhra Pradesh",
            "latitude": "16.5833",
            "longitude": "81.3"
        },
        {
            "key": "IN/521372",
            "place_name": "Chandrala (Angaluru)",
            "admin_name1": "Andhra Pradesh",
            "latitude": "16.5833",
            "longitude": "81.3"
        },
        {
            "key": "IN/521402",
            "place_name": "Vatsavai",
            "admin_name1": "Andhra Pradesh",
            "latitude": "16.9833",
            "longitude": "80.5167"
        },
        {
            "key": "IN/521403",
            "place_name": "Gampalagudem",
            "admin_name1": "Andhra Pradesh",
            "latitude": "16.9833",
            "longitude": "80.5167",
            "accuracy": "4"
        },
        {
            "key": "IN/522001",
            "place_name": "G T R Kothapet",
            "admin_name1": "Andhra Pradesh",
            "latitude": "16.3375",
            "longitude": "80.3083"
        },
        {
            "key": "IN/522002",
            "place_name": "Vallurivari Road",
            "admin_name1": "Andhra Pradesh",
            "latitude": "16.3375",
            "longitude": "80.3083"
        },
        {
            "key": "IN/522003",
            "place_name": "Factories Ward",
            "admin_name1": "Andhra Pradesh",
            "latitude": "16.3375",
            "longitude": "80.3083"
        },
        {
            "key": "IN/522004",
            "place_name": "Sampathnagar",
            "admin_name1": "Andhra Pradesh",
            "latitude": "16.3375",
            "longitude": "80.3083"
        },
        {
            "key": "IN/522005",
            "place_name": "Nallapadu (Guntur)",
            "admin_name1": "Andhra Pradesh",
            "latitude": "16.3375",
            "longitude": "80.3083"
        },
        {
            "key": "IN/522007",
            "place_name": "Laxmipuram Water Works",
            "admin_name1": "Andhra Pradesh",
            "latitude": "16.3375",
            "longitude": "80.3083"
        },
        {
            "key": "IN/522008",
            "place_name": "Lankala Koderu",
            "admin_name1": "Andhra Pradesh",
            "latitude": "16.3375",
            "longitude": "80.3083"
        },
        {
            "key": "IN/522010",
            "place_name": "Old Guntur",
            "admin_name1": "Andhra Pradesh",
            "latitude": "16.3375",
            "longitude": "80.3083"
        },
        {
            "key": "IN/522015",
            "place_name": "Abbinenigunta Palem",
            "admin_name1": "Andhra Pradesh",
            "latitude": "16.3375",
            "longitude": "80.3083"
        },
        {
            "key": "IN/522016",
            "place_name": "Lemalle",
            "admin_name1": "Andhra Pradesh",
            "latitude": "16.3375",
            "longitude": "80.3083"
        },
        {
            "key": "IN/522017",
            "place_name": "Etkur",
            "admin_name1": "Andhra Pradesh",
            "latitude": "16.3375",
            "longitude": "80.3083"
        },
        {
            "key": "IN/522021",
            "place_name": "Bandarupalle (Gtr)",
            "admin_name1": "Andhra Pradesh",
            "latitude": "16.3375",
            "longitude": "80.3083"
        },
        {
            "key": "IN/522026",
            "place_name": "Dharanikota (Gtr)",
            "admin_name1": "Andhra Pradesh",
            "latitude": "16.3375",
            "longitude": "80.3083"
        },
        {
            "key": "IN/522034",
            "place_name": "Industrial Estate Gtr",
            "admin_name1": "Andhra Pradesh",
            "latitude": "16.3375",
            "longitude": "80.3083"
        },
        {
            "key": "IN/522050",
            "place_name": "Det Guntur",
            "admin_name1": "Andhra Pradesh",
            "latitude": "16.3375",
            "longitude": "80.3083"
        },
        {
            "key": "IN/522101",
            "place_name": "Taluka Office",
            "admin_name1": "Andhra Pradesh",
            "latitude": "16.3375",
            "longitude": "80.3083"
        },
        {
            "key": "IN/522112",
            "place_name": "Kakumanu",
            "admin_name1": "Andhra Pradesh",
            "latitude": "16.3375",
            "longitude": "80.3083"
        },
        {
            "key": "IN/522125",
            "place_name": "Vallabharao Palem",
            "admin_name1": "Andhra Pradesh",
            "latitude": "16.3375",
            "longitude": "80.3083"
        },
        {
            "key": "IN/522201",
            "place_name": "Lthanagar Appadu",
            "admin_name1": "Andhra Pradesh",
            "latitude": "16.2",
            "longitude": "80.6"
        },
        {
            "key": "IN/522202",
            "place_name": "Balaji Nagar",
            "admin_name1": "Andhra Pradesh",
            "latitude": "16.2",
            "longitude": "80.6"
        },
        {
            "key": "IN/522213",
            "place_name": "Sangam Jagarlamudi",
            "admin_name1": "Andhra Pradesh",
            "latitude": "16.2",
            "longitude": "80.6"
        },
        {
            "key": "IN/522233",
            "place_name": "Edla Padu",
            "admin_name1": "Andhra Pradesh",
            "latitude": "16.4167",
            "longitude": "80.45"
        },
        {
            "key": "IN/522234",
            "place_name": "Nadendla",
            "admin_name1": "Andhra Pradesh",
            "latitude": "16.4167",
            "longitude": "80.45"
        },
        {
            "key": "IN/522236",
            "place_name": "Tadikonda",
            "admin_name1": "Andhra Pradesh",
            "latitude": "16.4167",
            "longitude": "80.45",
            "accuracy": "4"
        },
        {
            "key": "IN/522260",
            "place_name": "Pallapatla",
            "admin_name1": "Andhra Pradesh",
            "latitude": "15.9833",
            "longitude": "80.75",
            "accuracy": "4"
        },
        {
            "key": "IN/522263",
            "place_name": "Advula Divi",
            "admin_name1": "Andhra Pradesh",
            "latitude": "15.9833",
            "longitude": "80.75"
        },
        {
            "key": "IN/522265",
            "place_name": "Railpet",
            "admin_name1": "Andhra Pradesh",
            "latitude": "15.9833",
            "longitude": "80.75"
        },
        {
            "key": "IN/522266",
            "place_name": "Jampani",
            "admin_name1": "Andhra Pradesh",
            "latitude": "15.9833",
            "longitude": "80.75"
        },
        {
            "key": "IN/522268",
            "place_name": "Nagaram",
            "admin_name1": "Andhra Pradesh",
            "latitude": "17.1842",
            "longitude": "78.3897"
        },
        {
            "key": "IN/522273",
            "place_name": "Kaite Palle",
            "admin_name1": "Andhra Pradesh",
            "latitude": "16.2",
            "longitude": "80.6"
        },
        {
            "key": "IN/522280",
            "place_name": "Nalluru Palem",
            "admin_name1": "Andhra Pradesh",
            "latitude": "16.2",
            "longitude": "80.6"
        },
        {
            "key": "IN/522290",
            "place_name": "Vallabhapuram",
            "admin_name1": "Andhra Pradesh",
            "latitude": "16.2",
            "longitude": "80.6"
        },
        {
            "key": "IN/522296",
            "place_name": "Ipur",
            "admin_name1": "Andhra Pradesh",
            "latitude": "16.2",
            "longitude": "80.6"
        },
        {
            "key": "IN/522297",
            "place_name": "Dantalur",
            "admin_name1": "Andhra Pradesh",
            "latitude": "16.2",
            "longitude": "80.6"
        },
        {
            "key": "IN/522308",
            "place_name": "Emani",
            "admin_name1": "Andhra Pradesh",
            "latitude": "16.3375",
            "longitude": "80.3083"
        },
        {
            "key": "IN/522311",
            "place_name": "Chandole",
            "admin_name1": "Andhra Pradesh",
            "latitude": "16.3375",
            "longitude": "80.3083"
        },
        {
            "key": "IN/522315",
            "place_name": "Machavaram",
            "admin_name1": "Andhra Pradesh",
            "latitude": "16.3375",
            "longitude": "80.3083"
        },
        {
            "key": "IN/522318",
            "place_name": "T Sunduru",
            "admin_name1": "Andhra Pradesh",
            "latitude": "16.3375",
            "longitude": "80.3083"
        },
        {
            "key": "IN/522340",
            "place_name": "Edla Palli",
            "admin_name1": "Andhra Pradesh",
            "latitude": "16.3375",
            "longitude": "80.3083"
        },
        {
            "key": "IN/522403",
            "place_name": "Vaddavalli (Sap)",
            "admin_name1": "Andhra Pradesh",
            "latitude": "16.4833",
            "longitude": "79.4333"
        },
        {
            "key": "IN/522407",
            "place_name": "Linganguntla",
            "admin_name1": "Andhra Pradesh",
            "latitude": "16.4833",
            "longitude": "79.4333"
        },
        {
            "key": "IN/522413",
            "place_name": "P R Bazar",
            "admin_name1": "Andhra Pradesh",
            "latitude": "16.4833",
            "longitude": "79.4333"
        },
        {
            "key": "IN/522426",
            "place_name": "Macherla",
            "admin_name1": "Andhra Pradesh",
            "latitude": "16.4833",
            "longitude": "79.4333",
            "accuracy": "4"
        },
        {
            "key": "IN/522501",
            "place_name": "Tadepalle",
            "admin_name1": "Andhra Pradesh",
            "latitude": "16.4667",
            "longitude": "80.6",
            "accuracy": "4"
        },
        {
            "key": "IN/522503",
            "place_name": "Weavers Colony",
            "admin_name1": "Andhra Pradesh",
            "latitude": "16.4667",
            "longitude": "80.6"
        },
        {
            "key": "IN/522508",
            "place_name": "Namburu",
            "admin_name1": "Andhra Pradesh",
            "latitude": "16.4667",
            "longitude": "80.6"
        },
        {
            "key": "IN/522510",
            "place_name": "Nagarjunanagar (Gtr)",
            "admin_name1": "Andhra Pradesh",
            "latitude": "16.4667",
            "longitude": "80.6"
        },
        {
            "key": "IN/522511",
            "place_name": "Old Mangala Giri",
            "admin_name1": "Andhra Pradesh",
            "latitude": "16.4667",
            "longitude": "80.6"
        },
        {
            "key": "IN/522601",
            "place_name": "N Raopet Bazar",
            "admin_name1": "Andhra Pradesh",
            "latitude": "16.3375",
            "longitude": "80.3083"
        },
        {
            "key": "IN/522608",
            "place_name": "Agraharam",
            "admin_name1": "Andhra Pradesh",
            "latitude": "18.3333",
            "longitude": "84.1167"
        },
        {
            "key": "IN/522615",
            "place_name": "Nakarikallu",
            "admin_name1": "Andhra Pradesh",
            "latitude": "16.3375",
            "longitude": "80.3083"
        },
        {
            "key": "IN/522630",
            "place_name": "Raju Palem",
            "admin_name1": "Andhra Pradesh",
            "latitude": "16.3375",
            "longitude": "80.3083"
        },
        {
            "key": "IN/522658",
            "place_name": "Ipur",
            "admin_name1": "Andhra Pradesh",
            "latitude": "16.3375",
            "longitude": "80.3083"
        },
        {
            "key": "IN/522663",
            "place_name": "Bandla Mottu",
            "admin_name1": "Andhra Pradesh",
            "latitude": "16.3375",
            "longitude": "80.3083"
        },
        {
            "key": "IN/523001",
            "place_name": "Addanki Gate",
            "admin_name1": "Andhra Pradesh",
            "latitude": "15.6917",
            "longitude": "79.5083"
        },
        {
            "key": "IN/523002",
            "place_name": "Lawyerpeta (Ongole)",
            "admin_name1": "Andhra Pradesh",
            "latitude": "15.6917",
            "longitude": "79.5083"
        },
        {
            "key": "IN/523104",
            "place_name": "Woolapalem",
            "admin_name1": "Andhra Pradesh",
            "latitude": "15.6917",
            "longitude": "79.5083"
        },
        {
            "key": "IN/523114",
            "place_name": "Lingasamudram",
            "admin_name1": "Andhra Pradesh",
            "latitude": "15.6917",
            "longitude": "79.5083"
        },
        {
            "key": "IN/523165",
            "place_name": "Jandrapet",
            "admin_name1": "Andhra Pradesh",
            "latitude": "15.6917",
            "longitude": "79.5083"
        },
        {
            "key": "IN/523166",
            "place_name": "Ipurupalem",
            "admin_name1": "Andhra Pradesh",
            "latitude": "15.6917",
            "longitude": "79.5083"
        },
        {
            "key": "IN/523181",
            "place_name": "Kadava Kuduru",
            "admin_name1": "Andhra Pradesh",
            "latitude": "15.6917",
            "longitude": "79.5083"
        },
        {
            "key": "IN/523183",
            "place_name": "Nagula Palle Padu",
            "admin_name1": "Andhra Pradesh",
            "latitude": "15.6917",
            "longitude": "79.5083"
        },
        {
            "key": "IN/523186",
            "place_name": "Uppaugundur",
            "admin_name1": "Andhra Pradesh",
            "latitude": "15.6917",
            "longitude": "79.5083"
        },
        {
            "key": "IN/523190",
            "place_name": "Idupulapadu",
            "admin_name1": "Andhra Pradesh",
            "latitude": "15.6917",
            "longitude": "79.5083"
        },
        {
            "key": "IN/523194",
            "place_name": "Idumudi",
            "admin_name1": "Andhra Pradesh",
            "latitude": "15.6917",
            "longitude": "79.5083"
        },
        {
            "key": "IN/523201",
            "place_name": "Addanki H O",
            "admin_name1": "Andhra Pradesh",
            "latitude": "15.9167",
            "longitude": "80.05"
        },
        {
            "key": "IN/523211",
            "place_name": "Maddi Padu",
            "admin_name1": "Andhra Pradesh",
            "latitude": "15.9167",
            "longitude": "80.05"
        },
        {
            "key": "IN/523216",
            "place_name": "Paidipadu",
            "admin_name1": "Andhra Pradesh",
            "latitude": "15.9167",
            "longitude": "80.05"
        },
        {
            "key": "IN/523226",
            "place_name": "Bandlamudi",
            "admin_name1": "Andhra Pradesh",
            "latitude": "15.9167",
            "longitude": "80.05"
        },
        {
            "key": "IN/523227",
            "place_name": "Hanumanthuni Padu",
            "admin_name1": "Andhra Pradesh",
            "latitude": "15.9167",
            "longitude": "80.05"
        },
        {
            "key": "IN/523247",
            "place_name": "Darsi Nsc Colony",
            "admin_name1": "Andhra Pradesh",
            "latitude": "15.9167",
            "longitude": "80.05"
        },
        {
            "key": "IN/523253",
            "place_name": "Uppalapadu (P)",
            "admin_name1": "Andhra Pradesh",
            "latitude": "15.9167",
            "longitude": "80.05"
        },
        {
            "key": "IN/523260",
            "place_name": "Valaparla",
            "admin_name1": "Andhra Pradesh",
            "latitude": "15.9167",
            "longitude": "80.05",
            "accuracy": "4"
        },
        {
            "key": "IN/523263",
            "place_name": "Llapavulur",
            "admin_name1": "Andhra Pradesh",
            "latitude": "15.9167",
            "longitude": "80.05"
        },
        {
            "key": "IN/523264",
            "place_name": "Talluru",
            "admin_name1": "Andhra Pradesh",
            "latitude": "15.9167",
            "longitude": "80.05"
        },
        {
            "key": "IN/523269",
            "place_name": "Yedugundla Padu",
            "admin_name1": "Andhra Pradesh",
            "latitude": "15.9167",
            "longitude": "80.05"
        },
        {
            "key": "IN/523272",
            "place_name": "Valluru",
            "admin_name1": "Andhra Pradesh",
            "latitude": "15.9167",
            "longitude": "80.05"
        },
        {
            "key": "IN/523274",
            "place_name": "Tanguturu",
            "admin_name1": "Andhra Pradesh",
            "latitude": "15.35",
            "longitude": "80.05"
        },
        {
            "key": "IN/523277",
            "place_name": "Devagudur",
            "admin_name1": "Andhra Pradesh",
            "latitude": "15.9167",
            "longitude": "80.05"
        },
        {
            "key": "IN/523279",
            "place_name": "Uppalapadu (K)",
            "admin_name1": "Andhra Pradesh",
            "latitude": "15.9167",
            "longitude": "80.05"
        },
        {
            "key": "IN/523280",
            "place_name": "Madanur",
            "admin_name1": "Andhra Pradesh",
            "latitude": "15.9167",
            "longitude": "80.05"
        },
        {
            "key": "IN/523290",
            "place_name": "Paleti Padu",
            "admin_name1": "Andhra Pradesh",
            "latitude": "15.9167",
            "longitude": "80.05"
        },
        {
            "key": "IN/523292",
            "place_name": "Ualavapadu",
            "admin_name1": "Andhra Pradesh",
            "latitude": "15.9167",
            "longitude": "80.05"
        },
        {
            "key": "IN/523297",
            "place_name": "Jayavaram",
            "admin_name1": "Andhra Pradesh",
            "latitude": "15.9167",
            "longitude": "80.05"
        },
        {
            "key": "IN/523315",
            "place_name": "Gajjala Konda",
            "admin_name1": "Andhra Pradesh",
            "latitude": "15.4667",
            "longitude": "78.9667"
        },
        {
            "key": "IN/523327",
            "place_name": "Erragonda Palem",
            "admin_name1": "Andhra Pradesh",
            "latitude": "15.4667",
            "longitude": "78.9667"
        },
        {
            "key": "IN/523356",
            "place_name": "Edavalli",
            "admin_name1": "Andhra Pradesh",
            "latitude": "15.4667",
            "longitude": "78.9667"
        },
        {
            "key": "IN/523368",
            "place_name": "Racherla",
            "admin_name1": "Andhra Pradesh",
            "latitude": "15.4667",
            "longitude": "78.9667",
            "accuracy": "4"
        },
        {
            "key": "IN/524001",
            "place_name": "Vedamvari Agraharam",
            "admin_name1": "Andhra Pradesh",
            "latitude": "18.4",
            "longitude": "82.4333"
        },
        {
            "key": "IN/524002",
            "place_name": "Lakshmipuram",
            "admin_name1": "Andhra Pradesh",
            "latitude": "18.4",
            "longitude": "82.4333",
            "accuracy": "4"
        },
        {
            "key": "IN/524003",
            "place_name": "Darga Mitta H O",
            "admin_name1": "Andhra Pradesh",
            "latitude": "18.4",
            "longitude": "82.4333"
        },
        {
            "key": "IN/524101",
            "place_name": "G D R Chowk",
            "admin_name1": "Andhra Pradesh",
            "latitude": "14.0333",
            "longitude": "79.7167"
        },
        {
            "key": "IN/524127",
            "place_name": "Yella Siri",
            "admin_name1": "Andhra Pradesh",
            "latitude": "14.0333",
            "longitude": "79.7167"
        },
        {
            "key": "IN/524129",
            "place_name": "Balaya Palli",
            "admin_name1": "Andhra Pradesh",
            "latitude": "14.0333",
            "longitude": "79.7167"
        },
        {
            "key": "IN/524131",
            "place_name": "Jayampu",
            "admin_name1": "Andhra Pradesh",
            "latitude": "14.0333",
            "longitude": "79.7167",
            "accuracy": "4"
        },
        {
            "key": "IN/524132",
            "place_name": "V G T Bazar",
            "admin_name1": "Andhra Pradesh",
            "latitude": "14.0333",
            "longitude": "79.7167"
        },
        {
            "key": "IN/524152",
            "place_name": "Damavaram",
            "admin_name1": "Andhra Pradesh",
            "latitude": "14.0333",
            "longitude": "79.7167"
        },
        {
            "key": "IN/524202",
            "place_name": "Janathapet",
            "admin_name1": "Andhra Pradesh",
            "latitude": "14.85",
            "longitude": "79.5083"
        },
        {
            "key": "IN/524221",
            "place_name": "Chakalakonda",
            "admin_name1": "Andhra Pradesh",
            "latitude": "14.85",
            "longitude": "79.5083"
        },
        {
            "key": "IN/524223",
            "place_name": "Jaladanki",
            "admin_name1": "Andhra Pradesh",
            "latitude": "14.85",
            "longitude": "79.5083"
        },
        {
            "key": "IN/524224",
            "place_name": "Kaligiri",
            "admin_name1": "Andhra Pradesh",
            "latitude": "14.8333",
            "longitude": "79.7",
            "accuracy": "4"
        },
        {
            "key": "IN/524226",
            "place_name": "Udayagiri",
            "admin_name1": "Andhra Pradesh",
            "latitude": "14.8667",
            "longitude": "79.3167",
            "accuracy": "4"
        },
        {
            "key": "IN/524227",
            "place_name": "Vari Kunta Padu",
            "admin_name1": "Andhra Pradesh",
            "latitude": "14.85",
            "longitude": "79.5083"
        },
        {
            "key": "IN/524308",
            "place_name": "Sangam",
            "admin_name1": "Andhra Pradesh",
            "latitude": "14.6",
            "longitude": "79.75"
        },
        {
            "key": "IN/524314",
            "place_name": "Indukurpet",
            "admin_name1": "Andhra Pradesh",
            "latitude": "18.35",
            "longitude": "84.1167"
        },
        {
            "key": "IN/524317",
            "place_name": "Gandavaram",
            "admin_name1": "Andhra Pradesh",
            "latitude": "18.35",
            "longitude": "84.1167"
        },
        {
            "key": "IN/524319",
            "place_name": "Yellaya Palem",
            "admin_name1": "Andhra Pradesh",
            "latitude": "18.35",
            "longitude": "84.1167"
        },
        {
            "key": "IN/524322",
            "place_name": "Laxmanraopalle",
            "admin_name1": "Andhra Pradesh",
            "latitude": "18.35",
            "longitude": "84.1167"
        },
        {
            "key": "IN/524329",
            "place_name": "Palli",
            "admin_name1": "Andhra Pradesh",
            "latitude": "18.35",
            "longitude": "84.1167",
            "accuracy": "4"
        },
        {
            "key": "IN/524343",
            "place_name": "Kalu Voya",
            "admin_name1": "Andhra Pradesh",
            "latitude": "18.35",
            "longitude": "84.1167"
        },
        {
            "key": "IN/524401",
            "place_name": "Tada",
            "admin_name1": "Andhra Pradesh",
            "latitude": "13.5833",
            "longitude": "80.0333",
            "accuracy": "4"
        },
        {
            "key": "IN/524404",
            "place_name": "Bangaraopet",
            "admin_name1": "Andhra Pradesh",
            "latitude": "13.5833",
            "longitude": "80.0333"
        },
        {
            "key": "IN/524409",
            "place_name": "Kali Chedu",
            "admin_name1": "Andhra Pradesh",
            "latitude": "13.5833",
            "longitude": "80.0333"
        },
        {
            "key": "IN/524410",
            "place_name": "Kadivedu",
            "admin_name1": "Andhra Pradesh",
            "latitude": "13.575",
            "longitude": "79.5167"
        },
        {
            "key": "IN/524415",
            "place_name": "Vakadu",
            "admin_name1": "Andhra Pradesh",
            "latitude": "13.575",
            "longitude": "79.5167"
        },
        {
            "key": "IN/524441",
            "place_name": "Kalluru",
            "admin_name1": "Andhra Pradesh",
            "latitude": "13.5667",
            "longitude": "79",
            "accuracy": "4"
        },
        {
            "key": "IN/530001",
            "place_name": "Fort Ward",
            "admin_name1": "Andhra Pradesh",
            "latitude": "17.7375",
            "longitude": "82.8347"
        },
        {
            "key": "IN/530002",
            "place_name": "Official Colony",
            "admin_name1": "Andhra Pradesh",
            "latitude": "17.7375",
            "longitude": "82.8347"
        },
        {
            "key": "IN/530004",
            "place_name": "Lic Bldg",
            "admin_name1": "Andhra Pradesh",
            "latitude": "17.7375",
            "longitude": "82.8347"
        },
        {
            "key": "IN/530005",
            "place_name": "Gandhi Gram (Visakha)",
            "admin_name1": "Andhra Pradesh",
            "latitude": "17.7375",
            "longitude": "82.8347"
        },
        {
            "key": "IN/530007",
            "place_name": "Industrial Estate",
            "admin_name1": "Andhra Pradesh",
            "latitude": "17.7375",
            "longitude": "82.8347"
        },
        {
            "key": "IN/530009",
            "place_name": "Depot (Visakha)",
            "admin_name1": "Andhra Pradesh",
            "latitude": "17.7375",
            "longitude": "82.8347"
        },
        {
            "key": "IN/530013",
            "place_name": "P & T Colony (Visakha)",
            "admin_name1": "Andhra Pradesh",
            "latitude": "17.7375",
            "longitude": "82.8347"
        },
        {
            "key": "IN/530014",
            "place_name": "Ins Satavahana",
            "admin_name1": "Andhra Pradesh",
            "latitude": "17.7375",
            "longitude": "82.8347"
        },
        {
            "key": "IN/530016",
            "place_name": "Lalithanagaram",
            "admin_name1": "Andhra Pradesh",
            "latitude": "17.7375",
            "longitude": "82.8347"
        },
        {
            "key": "IN/530017",
            "place_name": "Lawsons Bay Colony Visakh",
            "admin_name1": "Andhra Pradesh",
            "latitude": "17.7375",
            "longitude": "82.8347"
        },
        {
            "key": "IN/530019",
            "place_name": "Madhuravada (Visakha)",
            "admin_name1": "Andhra Pradesh",
            "latitude": "17.7375",
            "longitude": "82.8347"
        },
        {
            "key": "IN/530020",
            "place_name": "Lalitha Colony",
            "admin_name1": "Andhra Pradesh",
            "latitude": "17.7375",
            "longitude": "82.8347"
        },
        {
            "key": "IN/530022",
            "place_name": "Housing Board Colony",
            "admin_name1": "Andhra Pradesh",
            "latitude": "17.7375",
            "longitude": "82.8347"
        },
        {
            "key": "IN/530024",
            "place_name": "Kailasapuram",
            "admin_name1": "Andhra Pradesh",
            "latitude": "17.7375",
            "longitude": "82.8347"
        },
        {
            "key": "IN/530026",
            "place_name": "Gajuvaka (Visakha)",
            "admin_name1": "Andhra Pradesh",
            "latitude": "17.7375",
            "longitude": "82.8347"
        },
        {
            "key": "IN/530027",
            "place_name": "Yellapuvanipalem",
            "admin_name1": "Andhra Pradesh",
            "latitude": "17.7375",
            "longitude": "82.8347"
        },
        {
            "key": "IN/530030",
            "place_name": "Aganampudi Visakha",
            "admin_name1": "Andhra Pradesh",
            "latitude": "17.7375",
            "longitude": "82.8347"
        },
        {
            "key": "IN/530039",
            "place_name": "Yendada (Visakha)",
            "admin_name1": "Andhra Pradesh",
            "latitude": "17.7375",
            "longitude": "82.8347"
        },
        {
            "key": "IN/531001",
            "place_name": "Gandhi Market",
            "admin_name1": "Andhra Pradesh",
            "latitude": "17.78",
            "longitude": "82.79"
        },
        {
            "key": "IN/531002",
            "place_name": "Nadanam Doddi",
            "admin_name1": "Andhra Pradesh",
            "latitude": "17.78",
            "longitude": "82.79"
        },
        {
            "key": "IN/531011",
            "place_name": "Achutapuram",
            "admin_name1": "Andhra Pradesh",
            "latitude": "17.78",
            "longitude": "82.79"
        },
        {
            "key": "IN/531024",
            "place_name": "Paderoo",
            "admin_name1": "Andhra Pradesh",
            "latitude": "18.0833",
            "longitude": "82.6667",
            "accuracy": "4"
        },
        {
            "key": "IN/531026",
            "place_name": "Vaddadi",
            "admin_name1": "Andhra Pradesh",
            "latitude": "17.85",
            "longitude": "82.8833",
            "accuracy": "4"
        },
        {
            "key": "IN/531027",
            "place_name": "Madugula",
            "admin_name1": "Andhra Pradesh",
            "latitude": "17.9167",
            "longitude": "82.8",
            "accuracy": "4"
        },
        {
            "key": "IN/531030",
            "place_name": "Devara Palle",
            "admin_name1": "Andhra Pradesh",
            "latitude": "17.78",
            "longitude": "82.79"
        },
        {
            "key": "IN/531055",
            "place_name": "Yellamanchili",
            "admin_name1": "Andhra Pradesh",
            "latitude": "17.55",
            "longitude": "82.8667",
            "accuracy": "4"
        },
        {
            "key": "IN/531060",
            "place_name": "S Rayavaram",
            "admin_name1": "Andhra Pradesh",
            "latitude": "17.78",
            "longitude": "82.79"
        },
        {
            "key": "IN/531075",
            "place_name": "Lakkavaram",
            "admin_name1": "Andhra Pradesh",
            "latitude": "17.78",
            "longitude": "82.79"
        },
        {
            "key": "IN/531081",
            "place_name": "Nakkapalli",
            "admin_name1": "Andhra Pradesh",
            "latitude": "17.5",
            "longitude": "82.7333"
        },
        {
            "key": "IN/531082",
            "place_name": "Etikoppaka",
            "admin_name1": "Andhra Pradesh",
            "latitude": "17.5",
            "longitude": "82.7333",
            "accuracy": "4"
        },
        {
            "key": "IN/531091",
            "place_name": "Agraharam",
            "admin_name1": "Andhra Pradesh",
            "latitude": "18.3333",
            "longitude": "84.1167"
        },
        {
            "key": "IN/531133",
            "place_name": "Raghavendranagar",
            "admin_name1": "Andhra Pradesh",
            "latitude": "17.825",
            "longitude": "82.8694"
        },
        {
            "key": "IN/531161",
            "place_name": "Lakkavarapu Kota",
            "admin_name1": "Andhra Pradesh",
            "latitude": "17.825",
            "longitude": "82.8694"
        },
        {
            "key": "IN/531201",
            "place_name": "Gajula Rega",
            "admin_name1": "Andhra Pradesh",
            "latitude": "18.05",
            "longitude": "83.2667"
        },
        {
            "key": "IN/531202",
            "place_name": "Dasannapeta",
            "admin_name1": "Andhra Pradesh",
            "latitude": "18.05",
            "longitude": "83.2667"
        },
        {
            "key": "IN/531211",
            "place_name": "Ingala Palli",
            "admin_name1": "Andhra Pradesh",
            "latitude": "18.05",
            "longitude": "83.2667"
        },
        {
            "key": "IN/531214",
            "place_name": "Sainik School (Koru Konda",
            "admin_name1": "Andhra Pradesh",
            "latitude": "18.05",
            "longitude": "83.2667"
        },
        {
            "key": "IN/531250",
            "place_name": "Jami",
            "admin_name1": "Andhra Pradesh",
            "latitude": "18.05",
            "longitude": "83.2667",
            "accuracy": "4"
        },
        {
            "key": "IN/531270",
            "place_name": "Gajapati Nagaram",
            "admin_name1": "Andhra Pradesh",
            "latitude": "18.05",
            "longitude": "83.2667"
        },
        {
            "key": "IN/532001",
            "place_name": "Zilla Parishat",
            "admin_name1": "Andhra Pradesh",
            "latitude": "18.6896",
            "longitude": "84.0292"
        },
        {
            "key": "IN/532101",
            "place_name": "S R Nagar I E Colony",
            "admin_name1": "Andhra Pradesh",
            "latitude": "18.6896",
            "longitude": "84.0292"
        },
        {
            "key": "IN/532124",
            "place_name": "Uttarvalli",
            "admin_name1": "Andhra Pradesh",
            "latitude": "18.6896",
            "longitude": "84.0292"
        },
        {
            "key": "IN/532127",
            "place_name": "Rajam",
            "admin_name1": "Andhra Pradesh",
            "latitude": "18.6896",
            "longitude": "84.0292"
        },
        {
            "key": "IN/532137",
            "place_name": "Vadada",
            "admin_name1": "Andhra Pradesh",
            "latitude": "18.6896",
            "longitude": "84.0292"
        },
        {
            "key": "IN/532221",
            "place_name": "Palasa",
            "admin_name1": "Andhra Pradesh",
            "latitude": "18.7667",
            "longitude": "84.4167",
            "accuracy": "4"
        },
        {
            "key": "IN/532243",
            "place_name": "Hari Puram",
            "admin_name1": "Andhra Pradesh",
            "latitude": "18.825",
            "longitude": "84.5"
        },
        {
            "key": "IN/532263",
            "place_name": "Baruva",
            "admin_name1": "Andhra Pradesh",
            "latitude": "18.8833",
            "longitude": "84.5833",
            "accuracy": "4"
        },
        {
            "key": "IN/532264",
            "place_name": "Baruva R S",
            "admin_name1": "Andhra Pradesh",
            "latitude": "18.8833",
            "longitude": "84.5833"
        },
        {
            "key": "IN/532265",
            "place_name": "Palavalasa",
            "admin_name1": "Andhra Pradesh",
            "latitude": "18.8833",
            "longitude": "84.5833"
        },
        {
            "key": "IN/532312",
            "place_name": "Ichapuram",
            "admin_name1": "Andhra Pradesh",
            "latitude": "19.1167",
            "longitude": "84.7",
            "accuracy": "4"
        },
        {
            "key": "IN/532406",
            "place_name": "Calingapatnam",
            "admin_name1": "Andhra Pradesh",
            "latitude": "18.65",
            "longitude": "83.7667"
        },
        {
            "key": "IN/532407",
            "place_name": "Raja Puram",
            "admin_name1": "Andhra Pradesh",
            "latitude": "18.65",
            "longitude": "83.7667"
        },
        {
            "key": "IN/532425",
            "place_name": "Urlam",
            "admin_name1": "Andhra Pradesh",
            "latitude": "18.65",
            "longitude": "83.7667"
        },
        {
            "key": "IN/532432",
            "place_name": "Jalum Uru",
            "admin_name1": "Andhra Pradesh",
            "latitude": "18.65",
            "longitude": "83.7667"
        },
        {
            "key": "IN/532440",
            "place_name": "Palakonda",
            "admin_name1": "Andhra Pradesh",
            "latitude": "18.6",
            "longitude": "83.75",
            "accuracy": "4"
        },
        {
            "key": "IN/532456",
            "place_name": "Battilli",
            "admin_name1": "Andhra Pradesh",
            "latitude": "18.6667",
            "longitude": "83.95"
        },
        {
            "key": "IN/532458",
            "place_name": "Laxminarasupeta",
            "admin_name1": "Andhra Pradesh",
            "latitude": "18.6667",
            "longitude": "83.95"
        },
        {
            "key": "IN/532459",
            "place_name": "Hiramandalam",
            "admin_name1": "Andhra Pradesh",
            "latitude": "18.6667",
            "longitude": "83.95",
            "accuracy": "4"
        },
        {
            "key": "IN/532460",
            "place_name": "Veeraghattam",
            "admin_name1": "Andhra Pradesh",
            "latitude": "18.6833",
            "longitude": "83.6",
            "accuracy": "4"
        },
        {
            "key": "IN/532557",
            "place_name": "Baliji Peta",
            "admin_name1": "Andhra Pradesh",
            "latitude": "18.4",
            "longitude": "83.6167"
        },
        {
            "key": "IN/532581",
            "place_name": "Challapeta",
            "admin_name1": "Andhra Pradesh",
            "latitude": "18.4",
            "longitude": "83.6167"
        },
        {
            "key": "IN/532591",
            "place_name": "Saluru Fort",
            "admin_name1": "Andhra Pradesh",
            "latitude": "18.4",
            "longitude": "83.6167"
        },
        {
            "key": "IN/532592",
            "place_name": "Pachipenta",
            "admin_name1": "Andhra Pradesh",
            "latitude": "18.4667",
            "longitude": "83.1167",
            "accuracy": "4"
        },
        {
            "key": "IN/532599",
            "place_name": "Agraharam",
            "admin_name1": "Andhra Pradesh",
            "latitude": "18.3333",
            "longitude": "84.1167",
            "accuracy": "4"
        },
        {
            "key": "IN/532663",
            "place_name": "Agraharam",
            "admin_name1": "Andhra Pradesh",
            "latitude": "18.3333",
            "longitude": "84.1167"
        },
        {
            "key": "IN/533001",
            "place_name": "Kakinada Bazar",
            "admin_name1": "Andhra Pradesh",
            "latitude": "17.0222",
            "longitude": "82.1028"
        },
        {
            "key": "IN/533002",
            "place_name": "M S N Charities",
            "admin_name1": "Andhra Pradesh",
            "latitude": "17.0222",
            "longitude": "82.1028"
        },
        {
            "key": "IN/533003",
            "place_name": "Engineering College (Ka)",
            "admin_name1": "Andhra Pradesh",
            "latitude": "17.0222",
            "longitude": "82.1028"
        },
        {
            "key": "IN/533004",
            "place_name": "Gandhi Nagar (Kda)",
            "admin_name1": "Andhra Pradesh",
            "latitude": "17.0222",
            "longitude": "82.1028"
        },
        {
            "key": "IN/533006",
            "place_name": "Indrapalem (Kda)",
            "admin_name1": "Andhra Pradesh",
            "latitude": "17.0222",
            "longitude": "82.1028"
        },
        {
            "key": "IN/533007",
            "place_name": "Kakula",
            "admin_name1": "Andhra Pradesh",
            "latitude": "17.0222",
            "longitude": "82.1028"
        },
        {
            "key": "IN/533101",
            "place_name": "Fort Gate",
            "admin_name1": "Andhra Pradesh",
            "latitude": "17.0222",
            "longitude": "82.1028"
        },
        {
            "key": "IN/533103",
            "place_name": "Danavaipeta",
            "admin_name1": "Andhra Pradesh",
            "latitude": "17.0222",
            "longitude": "82.1028"
        },
        {
            "key": "IN/533105",
            "place_name": "Weavers Colony",
            "admin_name1": "Andhra Pradesh",
            "latitude": "17.0222",
            "longitude": "82.1028"
        },
        {
            "key": "IN/533124",
            "place_name": "Ind Estate D W E G Dt",
            "admin_name1": "Andhra Pradesh",
            "latitude": "17.0222",
            "longitude": "82.1028"
        },
        {
            "key": "IN/533126",
            "place_name": "Kadium",
            "admin_name1": "Andhra Pradesh",
            "latitude": "17.0222",
            "longitude": "82.1028"
        },
        {
            "key": "IN/533201",
            "place_name": "Gandhi Bazar",
            "admin_name1": "Andhra Pradesh",
            "latitude": "16.825",
            "longitude": "82"
        },
        {
            "key": "IN/533202",
            "place_name": "R D Office Roaod",
            "admin_name1": "Andhra Pradesh",
            "latitude": "16.825",
            "longitude": "82"
        },
        {
            "key": "IN/533213",
            "place_name": "Samanasa",
            "admin_name1": "Andhra Pradesh",
            "latitude": "16.825",
            "longitude": "82"
        },
        {
            "key": "IN/533216",
            "place_name": "Taluk Office Road",
            "admin_name1": "Andhra Pradesh",
            "latitude": "16.825",
            "longitude": "82"
        },
        {
            "key": "IN/533221",
            "place_name": "Bandar Lanka",
            "admin_name1": "Andhra Pradesh",
            "latitude": "16.5667",
            "longitude": "82.1"
        },
        {
            "key": "IN/533226",
            "place_name": "N Kotha Palli",
            "admin_name1": "Andhra Pradesh",
            "latitude": "16.5667",
            "longitude": "82.1"
        },
        {
            "key": "IN/533227",
            "place_name": "Uppalaguptam",
            "admin_name1": "Andhra Pradesh",
            "latitude": "16.5667",
            "longitude": "82.1",
            "accuracy": "4"
        },
        {
            "key": "IN/533228",
            "place_name": "Vanapalli",
            "admin_name1": "Andhra Pradesh",
            "latitude": "16.5667",
            "longitude": "82.1"
        },
        {
            "key": "IN/533234",
            "place_name": "Yeditha",
            "admin_name1": "Andhra Pradesh",
            "latitude": "16.825",
            "longitude": "82"
        },
        {
            "key": "IN/533240",
            "place_name": "Delta Gannavaram",
            "admin_name1": "Andhra Pradesh",
            "latitude": "16.825",
            "longitude": "82"
        },
        {
            "key": "IN/533247",
            "place_name": "Nagaram",
            "admin_name1": "Andhra Pradesh",
            "latitude": "17.1842",
            "longitude": "78.3897"
        },
        {
            "key": "IN/533251",
            "place_name": "Sakhineti Palli",
            "admin_name1": "Andhra Pradesh",
            "latitude": "16.825",
            "longitude": "82"
        },
        {
            "key": "IN/533255",
            "place_name": "R C Puram Bazar",
            "admin_name1": "Andhra Pradesh",
            "latitude": "16.825",
            "longitude": "82"
        },
        {
            "key": "IN/533263",
            "place_name": "Dangeru",
            "admin_name1": "Andhra Pradesh",
            "latitude": "16.825",
            "longitude": "82"
        },
        {
            "key": "IN/533285",
            "place_name": "G Kothapalli",
            "admin_name1": "Andhra Pradesh",
            "latitude": "16.825",
            "longitude": "82"
        },
        {
            "key": "IN/533294",
            "place_name": "Rajanagaram",
            "admin_name1": "Andhra Pradesh",
            "latitude": "17.0833",
            "longitude": "81.9",
            "accuracy": "4"
        },
        {
            "key": "IN/533333",
            "place_name": "Raghudevapuram",
            "admin_name1": "Andhra Pradesh",
            "latitude": "17.0222",
            "longitude": "82.1028"
        },
        {
            "key": "IN/533339",
            "place_name": "Devipatnam",
            "admin_name1": "Andhra Pradesh",
            "latitude": "17.0222",
            "longitude": "82.1028"
        },
        {
            "key": "IN/533428",
            "place_name": "Addatigala",
            "admin_name1": "Andhra Pradesh",
            "latitude": "17.4833",
            "longitude": "82.0167",
            "accuracy": "4"
        },
        {
            "key": "IN/533429",
            "place_name": "Yelesraram",
            "admin_name1": "Andhra Pradesh",
            "latitude": "17.4833",
            "longitude": "82.0167"
        },
        {
            "key": "IN/533435",
            "place_name": "Jaggampeta",
            "admin_name1": "Andhra Pradesh",
            "latitude": "17.1833",
            "longitude": "82.05",
            "accuracy": "4"
        },
        {
            "key": "IN/533436",
            "place_name": "Raja Vommangi",
            "admin_name1": "Andhra Pradesh",
            "latitude": "17.1833",
            "longitude": "82.05"
        },
        {
            "key": "IN/533440",
            "place_name": "Samalkot H O",
            "admin_name1": "Andhra Pradesh",
            "latitude": "17.0833",
            "longitude": "82.3333"
        },
        {
            "key": "IN/533448",
            "place_name": "Uppada",
            "admin_name1": "Andhra Pradesh",
            "latitude": "17.0833",
            "longitude": "82.3333",
            "accuracy": "4"
        },
        {
            "key": "IN/533463",
            "place_name": "Talla Revu",
            "admin_name1": "Andhra Pradesh",
            "latitude": "16.7333",
            "longitude": "82.2167"
        },
        {
            "key": "IN/533464",
            "place_name": "Yanam",
            "admin_name1": "Andhra Pradesh",
            "latitude": "16.7333",
            "longitude": "82.2167",
            "accuracy": "4"
        },
        {
            "key": "IN/533503",
            "place_name": "Challa Palli",
            "admin_name1": "Andhra Pradesh",
            "latitude": "17.0222",
            "longitude": "82.1028"
        },
        {
            "key": "IN/533541",
            "place_name": "Lakkavaram",
            "admin_name1": "Andhra Pradesh",
            "latitude": "17.0222",
            "longitude": "82.1028"
        },
        {
            "key": "IN/533583",
            "place_name": "Y Ramavaram",
            "admin_name1": "Andhra Pradesh",
            "latitude": "17.0222",
            "longitude": "82.1028"
        },
        {
            "key": "IN/534001",
            "place_name": "Eluru H O",
            "admin_name1": "Andhra Pradesh",
            "latitude": "16.775",
            "longitude": "81.4917"
        },
        {
            "key": "IN/534003",
            "place_name": "Sanivarapu Peta (Eluru)",
            "admin_name1": "Andhra Pradesh",
            "latitude": "16.775",
            "longitude": "81.4917"
        },
        {
            "key": "IN/534005",
            "place_name": "Eluru R S",
            "admin_name1": "Andhra Pradesh",
            "latitude": "16.775",
            "longitude": "81.4917"
        },
        {
            "key": "IN/534006",
            "place_name": "Eluru Collectorate",
            "admin_name1": "Andhra Pradesh",
            "latitude": "16.775",
            "longitude": "81.4917"
        },
        {
            "key": "IN/534015",
            "place_name": "Vatlur (Eluru)",
            "admin_name1": "Andhra Pradesh",
            "latitude": "16.775",
            "longitude": "81.4917"
        },
        {
            "key": "IN/534101",
            "place_name": "T P Gudem Town",
            "admin_name1": "Andhra Pradesh",
            "latitude": "16.65",
            "longitude": "81.4667"
        },
        {
            "key": "IN/534102",
            "place_name": "Tadepalligudem Bazar",
            "admin_name1": "Andhra Pradesh",
            "latitude": "16.65",
            "longitude": "81.4667"
        },
        {
            "key": "IN/534112",
            "place_name": "Nallajerla",
            "admin_name1": "Andhra Pradesh",
            "latitude": "16.65",
            "longitude": "81.4667"
        },
        {
            "key": "IN/534123",
            "place_name": "Achanta",
            "admin_name1": "Andhra Pradesh",
            "latitude": "16.65",
            "longitude": "81.4667"
        },
        {
            "key": "IN/534136",
            "place_name": "Pali",
            "admin_name1": "Andhra Pradesh",
            "latitude": "16.65",
            "longitude": "81.4667"
        },
        {
            "key": "IN/534145",
            "place_name": "Madhavaram",
            "admin_name1": "Andhra Pradesh",
            "latitude": "15.9333",
            "longitude": "77.35"
        },
        {
            "key": "IN/534186",
            "place_name": "Yendagandi",
            "admin_name1": "Andhra Pradesh",
            "latitude": "16.65",
            "longitude": "81.4667"
        },
        {
            "key": "IN/534196",
            "place_name": "Agraharam",
            "admin_name1": "Andhra Pradesh",
            "latitude": "18.3333",
            "longitude": "84.1167"
        },
        {
            "key": "IN/534198",
            "place_name": "Ganapavaram",
            "admin_name1": "Andhra Pradesh",
            "latitude": "16.7",
            "longitude": "81.4667",
            "accuracy": "4"
        },
        {
            "key": "IN/534199",
            "place_name": "Undi",
            "admin_name1": "Andhra Pradesh",
            "latitude": "16.6",
            "longitude": "81.4667",
            "accuracy": "4"
        },
        {
            "key": "IN/534211",
            "place_name": "Paidiparru",
            "admin_name1": "Andhra Pradesh",
            "latitude": "16.775",
            "longitude": "81.4917"
        },
        {
            "key": "IN/534217",
            "place_name": "Iragavaram",
            "admin_name1": "Andhra Pradesh",
            "latitude": "16.775",
            "longitude": "81.4917"
        },
        {
            "key": "IN/534236",
            "place_name": "Yeluru Padu",
            "admin_name1": "Andhra Pradesh",
            "latitude": "16.775",
            "longitude": "81.4917"
        },
        {
            "key": "IN/534237",
            "place_name": "Kalla",
            "admin_name1": "Andhra Pradesh",
            "latitude": "16.775",
            "longitude": "81.4917"
        },
        {
            "key": "IN/534250",
            "place_name": "Lankala Koderu",
            "admin_name1": "Andhra Pradesh",
            "latitude": "16.775",
            "longitude": "81.4917"
        },
        {
            "key": "IN/534260",
            "place_name": "Palakole Bazar",
            "admin_name1": "Andhra Pradesh",
            "latitude": "16.775",
            "longitude": "81.4917"
        },
        {
            "key": "IN/534261",
            "place_name": "Lajpathi Roy Peta",
            "admin_name1": "Andhra Pradesh",
            "latitude": "16.775",
            "longitude": "81.4917"
        },
        {
            "key": "IN/534268",
            "place_name": "Ellamanchili",
            "admin_name1": "Andhra Pradesh",
            "latitude": "16.775",
            "longitude": "81.4917"
        },
        {
            "key": "IN/534275",
            "place_name": "Ferry Road",
            "admin_name1": "Andhra Pradesh",
            "latitude": "16.775",
            "longitude": "81.4917"
        },
        {
            "key": "IN/534291",
            "place_name": "L B Cherla",
            "admin_name1": "Andhra Pradesh",
            "latitude": "16.775",
            "longitude": "81.4917"
        },
        {
            "key": "IN/534301",
            "place_name": "Wednesday Market",
            "admin_name1": "Andhra Pradesh",
            "latitude": "16.9833",
            "longitude": "81.6667"
        },
        {
            "key": "IN/534302",
            "place_name": "Samsra Gudem",
            "admin_name1": "Andhra Pradesh",
            "latitude": "16.9833",
            "longitude": "81.6667"
        },
        {
            "key": "IN/534305",
            "place_name": "Tadimalla",
            "admin_name1": "Andhra Pradesh",
            "latitude": "16.9833",
            "longitude": "81.6667"
        },
        {
            "key": "IN/534313",
            "place_name": "Devara Palli",
            "admin_name1": "Andhra Pradesh",
            "latitude": "16.9833",
            "longitude": "81.6667"
        },
        {
            "key": "IN/534331",
            "place_name": "Kakara Parru",
            "admin_name1": "Andhra Pradesh",
            "latitude": "16.9833",
            "longitude": "81.6667"
        },
        {
            "key": "IN/534341",
            "place_name": "Talla Pudi",
            "admin_name1": "Andhra Pradesh",
            "latitude": "16.9833",
            "longitude": "81.6667"
        },
        {
            "key": "IN/534342",
            "place_name": "Chagallu",
            "admin_name1": "Andhra Pradesh",
            "latitude": "16.9833",
            "longitude": "81.6667",
            "accuracy": "4"
        },
        {
            "key": "IN/534390",
            "place_name": "D Muppavaram Dronamraju",
            "admin_name1": "Andhra Pradesh",
            "latitude": "16.9833",
            "longitude": "81.6667"
        },
        {
            "key": "IN/534416",
            "place_name": "Kaikaram",
            "admin_name1": "Andhra Pradesh",
            "latitude": "16.8167",
            "longitude": "81.3667",
            "accuracy": "4"
        },
        {
            "key": "IN/534429",
            "place_name": "M Nagula Palli",
            "admin_name1": "Andhra Pradesh",
            "latitude": "16.8167",
            "longitude": "81.3667"
        },
        {
            "key": "IN/534437",
            "place_name": "Naidugudem",
            "admin_name1": "Andhra Pradesh",
            "latitude": "16.8167",
            "longitude": "81.3667"
        },
        {
            "key": "IN/534447",
            "place_name": "Janga Reddi Gudem H O",
            "admin_name1": "Andhra Pradesh",
            "latitude": "16.8167",
            "longitude": "81.3667"
        },
        {
            "key": "IN/534451",
            "place_name": "Lakkavaram",
            "admin_name1": "Andhra Pradesh",
            "latitude": "16.8167",
            "longitude": "81.3667"
        },
        {
            "key": "IN/534462",
            "place_name": "Dharmaji Gudem",
            "admin_name1": "Andhra Pradesh",
            "latitude": "16.8167",
            "longitude": "81.3667"
        }